{"type":"FeatureCollection","metadata":{"generated":1791376696000,"url":"https://earthquake.usgs.gov/fdsnws/event/1/query?format=geojson&starttime=2026-09-30T12:38:16.175Z&minmagnitude=4.5&orderby=time&limit=400","title":"USGS Earthquakes","status":200,"api":"2.7.0","limit":400,"offset":1},"features":[{"type":"Feature","properties":{"mag":4.7,"place":"22 km WNW of Manado, Indonesia","time":1791370654247,"updated":1791371763040,"tz":null,"url":"https://earthquake.usgs.gov/earthquakes/eventpage/us6000u0qw","detail":"https://earthquake.usgs.gov/fdsnws/event/1/query?eventid=us6000u0qw&format=geojson","felt":null,"cdi":null,"mmi":null,"alert":null,"status":"reviewed","tsunami":0,"sig":340,"net":"us","code":"6000u0qw","ids":",us6000u0qw,","sources":",us,","types":",origin,","nst":71,"dmin":5.528,"rms":0.68,"gap":79,"magType":"mb","type":"earthquake","title":"M 4.7 - 22 km WNW of Manado, Indonesia"},"geometry":{"type":"Point","coordinates":[124.6702,1.5798,139.831]},"id":"us6000u0qw"},{"type":"Feature","properties":{"mag":4.5,"place":"south of the Fiji Islands","time":1791368433568,"updated":1791369645040,"tz":null,"url":"https://earthquake.usgs.gov/earthquakes/eventpage/us6000u0qs","detail":"https://earthquake.usgs.gov/fdsnws/event/1/query?eventid=us6000u0qs&format=geojson","felt":null,"cdi":null,"mmi":null,"alert":null,"status":"reviewed","tsunami":0,"sig":312,"net":"us","code":"6000u0qs","ids":",us6000u0qs,","sources":",us,","types":",origin,phase-data,","nst":83,"dmin":6.688,"rms":0.51,"gap":74,"magType":"mb","type":"earthquake","title":"M 4.5 - south of the Fiji Islands"},"geometry":{"type":"Point","coordinates":[179.8316,-24.2564,528.878]},"id":"us6000u0qs"},{"type":"Feature","properties":{"mag":4.9,"place":"80 km SW of El Arenal, Mexico","time":1791358999524,"updated":1791360136040,"tz":null,"url":"https://earthquake.usgs.gov/earthquakes/eventpage/us6000u0q1","detail":"https://earthquake.usgs.gov/fdsnws/event/1/query?eventid=us6000u0q1&format=geojson","felt":null,"cdi":null,"mmi":null,"alert":null,"status":"reviewed","tsunami":0,"sig":369,"net":"us","code":"6000u0q1","ids":",us6000u0q1,","sources":",us,","types":",origin,phase-data,","nst":70,"dmin":1.938,"rms":1.24,"gap":142,"magType":"mb","type":"earthquake","title":"M 4.9 - 80 km SW of El Arenal, Mexico"},"geometry":{"type":"Point","coordinates":[-93.1891,14.6207,61.654]},"id":"us6000u0q1"},{"type":"Feature","properties":{"mag":4.9,"place":"South Sandwich Islands region","time":1791347966324,"updated":1791350810040,"tz":null,"url":"https://earthquake.usgs.gov/earthquakes/eventpage/us6000u0pb","detail":"https://earthquake.usgs.gov/fdsnws/event/1/query?eventid=us6000u0pb&format=geojson","felt":null,"cdi":null,"mmi":null,"alert":null,"status":"reviewed","tsunami":0,"sig":369,"net":"us","code":"6000u0pb","ids":",us6000u0pb,","sources":",us,","types":",origin,phase-data,","nst":27,"dmin":3.973,"rms":0.91,"gap":99,"magType":"mb","type":"earthquake","title":"M 4.9 - South Sandwich Islands region"},"geometry":{"type":"Point","coordinates":[-30.0294,-55.6737,10]},"id":"us6000u0pb"},{"type":"Feature","properties":{"mag":4.8,"place":"132 km ENE of Tadine, New Caledonia","time":1791341399426,"updated":1791342849040,"tz":null,"url":"https://earthquake.usgs.gov/earthquakes/eventpage/us6000u0ns","detail":"https://earthquake.usgs.gov/fdsnws/event/1/query?eventid=us6000u0ns&format=geojson","felt":null,"cdi":null,"mmi":null,"alert":null,"status":"reviewed","tsunami":0,"sig":354,"net":"us","code":"6000u0ns","ids":",us6000u0ns,","sources":",us,","types":",origin,phase-data,","nst":30,"dmin":2.175,"rms":1.21,"gap":117,"magType":"mb","type":"earthquake","title":"M 4.8 - 132 km ENE of Tadine, New Caledonia"},"geometry":{"type":"Point","coordinates":[169.0011,-20.979,10]},"id":"us6000u0ns"},{"type":"Feature","properties":{"mag":4.6,"place":"Kuril Islands","time":1791337145561,"updated":1791339979040,"tz":null,"url":"https://earthquake.usgs.gov/earthquakes/eventpage/us6000u0nb","detail":"https://earthquake.usgs.gov/fdsnws/event/1/query?eventid=us6000u0nb&format=geojson","felt":null,"cdi":null,"mmi":null,"alert":null,"status":"reviewed","tsunami":0,"sig":326,"net":"us","code":"6000u0nb","ids":",us6000u0nb,","sources":",us,","types":",origin,phase-data,","nst":49,"dmin":5.645,"rms":0.63,"gap":117,"magType":"mb","type":"earthquake","title":"M 4.6 - Kuril Islands"},"geometry":{"type":"Point","coordinates":[153.3699,48.1853,108.743]},"id":"us6000u0nb"},{"type":"Feature","properties":{"mag":4.8,"place":"57 km E of Petropavlovsk-Kamchatsky, Russia","time":1791333008365,"updated":1791347055040,"tz":null,"url":"https://earthquake.usgs.gov/earthquakes/eventpage/us6000u0mu","detail":"https://earthquake.usgs.gov/fdsnws/event/1/query?eventid=us6000u0mu&format=geojson","felt":null,"cdi":null,"mmi":null,"alert":null,"status":"reviewed","tsunami":0,"sig":354,"net":"us","code":"6000u0mu","ids":",us6000u0mu,","sources":",us,","types":",origin,phase-data,","nst":102,"dmin":1.076,"rms":0.52,"gap":36,"magType":"mb","type":"earthquake","title":"M 4.8 - 57 km E of Petropavlovsk-Kamchatsky, Russia"},"geometry":{"type":"Point","coordinates":[159.4666,52.9685,61.934]},"id":"us6000u0mu"},{"type":"Feature","properties":{"mag":4.5,"place":"37 km ESE of Iwaki, Japan","time":1791332561953,"updated":1791346172040,"tz":null,"url":"https://earthquake.usgs.gov/earthquakes/eventpage/us6000u0mr","detail":"https://earthquake.usgs.gov/fdsnws/event/1/query?eventid=us6000u0mr&format=geojson","felt":null,"cdi":null,"mmi":null,"alert":null,"status":"reviewed","tsunami":0,"sig":312,"net":"us","code":"6000u0mr","ids":",us6000u0mr,","sources":",us,","types":",origin,phase-data,","nst":37,"dmin":2.5,"rms":0.75,"gap":134,"magType":"mb","type":"earthquake","title":"M 4.5 - 37 km ESE of Iwaki, Japan"},"geometry":{"type":"Point","coordinates":[141.2803,36.9504,52.668]},"id":"us6000u0mr"},{"type":"Feature","properties":{"mag":4.7,"place":"Kermadec Islands, New Zealand","time":1791324766267,"updated":1791343349040,"tz":null,"url":"https://earthquake.usgs.gov/earthquakes/eventpage/us6000u0ll","detail":"https://earthquake.usgs.gov/fdsnws/event/1/query?eventid=us6000u0ll&format=geojson","felt":null,"cdi":null,"mmi":null,"alert":null,"status":"reviewed","tsunami":0,"sig":340,"net":"us","code":"6000u0ll","ids":",us6000u0ll,","sources":",us,","types":",origin,phase-data,","nst":24,"dmin":0.681,"rms":0.91,"gap":203,"magType":"mb","type":"earthquake","title":"M 4.7 - Kermadec Islands, New Zealand"},"geometry":{"type":"Point","coordinates":[-177.6188,-29.8721,71.248]},"id":"us6000u0ll"},{"type":"Feature","properties":{"mag":4.9,"place":"189 km SW of Abepura, Indonesia","time":1791323803985,"updated":1791338960040,"tz":null,"url":"https://earthquake.usgs.gov/earthquakes/eventpage/us6000u0le","detail":"https://earthquake.usgs.gov/fdsnws/event/1/query?eventid=us6000u0le&format=geojson","felt":null,"cdi":null,"mmi":null,"alert":null,"status":"reviewed","tsunami":0,"sig":369,"net":"us","code":"6000u0le","ids":",us6000u0le,","sources":",us,","types":",origin,phase-data,","nst":48,"dmin":1.814,"rms":0.75,"gap":53,"magType":"mb","type":"earthquake","title":"M 4.9 - 189 km SW of Abepura, Indonesia"},"geometry":{"type":"Point","coordinates":[139.5723,-3.9438,80.203]},"id":"us6000u0le"},{"type":"Feature","properties":{"mag":4.6,"place":"14 km NE of Mataram, Indonesia","time":1791317728171,"updated":1791375956238,"tz":null,"url":"https://earthquake.usgs.gov/earthquakes/eventpage/us6000u0km","detail":"https://earthquake.usgs.gov/fdsnws/event/1/query?eventid=us6000u0km&format=geojson","felt":14,"cdi":3.4,"mmi":null,"alert":null,"status":"reviewed","tsunami":0,"sig":330,"net":"us","code":"6000u0km","ids":",us6000u0km,","sources":",us,","types":",dyfi,origin,phase-data,","nst":94,"dmin":4.925,"rms":1.01,"gap":58,"magType":"mb","type":"earthquake","title":"M 4.6 - 14 km NE of Mataram, Indonesia"},"geometry":{"type":"Point","coordinates":[116.218,-8.4933,144.45]},"id":"us6000u0km"},{"type":"Feature","properties":{"mag":4.5,"place":"43 km WNW of Bengkulu, Indonesia","time":1791313319145,"updated":1791320820040,"tz":null,"url":"https://earthquake.usgs.gov/earthquakes/eventpage/us6000u0k2","detail":"https://earthquake.usgs.gov/fdsnws/event/1/query?eventid=us6000u0k2&format=geojson","felt":null,"cdi":null,"mmi":null,"alert":null,"status":"reviewed","tsunami":0,"sig":312,"net":"us","code":"6000u0k2","ids":",us6000u0k2,","sources":",us,","types":",origin,phase-data,","nst":42,"dmin":5.776,"rms":0.61,"gap":150,"magType":"mb","type":"earthquake","title":"M 4.5 - 43 km WNW of Bengkulu, Indonesia"},"geometry":{"type":"Point","coordinates":[101.8914,-3.6796,73.115]},"id":"us6000u0k2"},{"type":"Feature","properties":{"mag":5.5,"place":"92 km NNW of Aleneva, Alaska","time":1791311671760,"updated":1791373202717,"tz":null,"url":"https://earthquake.usgs.gov/earthquakes/eventpage/aka2026tuxgky","detail":"https://earthquake.usgs.gov/fdsnws/event/1/query?eventid=aka2026tuxgky&format=geojson","felt":336,"cdi":4.6,"mmi":4.215,"alert":"green","status":"reviewed","tsunami":0,"sig":620,"net":"ak","code":"a2026tuxgky","ids":",aka2026tuxgky,us6000u0ju,","sources":",ak,us,","types":",dyfi,event-sequence,losspager,moment-tensor,oaf,origin,phase-data,shakemap,","nst":121,"dmin":0.1,"rms":0.5,"gap":67,"magType":"ml","type":"earthquake","title":"M 5.5 - 92 km NNW of Aleneva, Alaska"},"geometry":{"type":"Point","coordinates":[-153.609,58.802,87.6]},"id":"aka2026tuxgky"},{"type":"Feature","properties":{"mag":4.9,"place":"114 km SW of Turpan, China","time":1791310534402,"updated":1791320438040,"tz":null,"url":"https://earthquake.usgs.gov/earthquakes/eventpage/us6000u0jq","detail":"https://earthquake.usgs.gov/fdsnws/event/1/query?eventid=us6000u0jq&format=geojson","felt":null,"cdi":null,"mmi":null,"alert":null,"status":"reviewed","tsunami":0,"sig":369,"net":"us","code":"6000u0jq","ids":",us6000u0jq,","sources":",us,","types":",origin,phase-data,","nst":70,"dmin":5.773,"rms":0.75,"gap":76,"magType":"mb","type":"earthquake","title":"M 4.9 - 114 km SW of Turpan, China"},"geometry":{"type":"Point","coordinates":[88.2203,42.2039,10]},"id":"us6000u0jq"},{"type":"Feature","properties":{"mag":4.8,"place":"85 km ENE of Shikotan, Russia","time":1791308824306,"updated":1791319691040,"tz":null,"url":"https://earthquake.usgs.gov/earthquakes/eventpage/us6000u0ji","detail":"https://earthquake.usgs.gov/fdsnws/event/1/query?eventid=us6000u0ji&format=geojson","felt":null,"cdi":null,"mmi":null,"alert":null,"status":"reviewed","tsunami":0,"sig":354,"net":"us","code":"6000u0ji","ids":",us6000u0ji,","sources":",us,","types":",origin,phase-data,","nst":99,"dmin":3.713,"rms":0.81,"gap":94,"magType":"mb","type":"earthquake","title":"M 4.8 - 85 km ENE of Shikotan, Russia"},"geometry":{"type":"Point","coordinates":[147.7419,44.0053,35]},"id":"us6000u0ji"},{"type":"Feature","properties":{"mag":5.1,"place":"34 km NNW of Bāgeshwar, India","time":1791305591296,"updated":1791354099979,"tz":null,"url":"https://earthquake.usgs.gov/earthquakes/eventpage/us6000u0hz","detail":"https://earthquake.usgs.gov/fdsnws/event/1/query?eventid=us6000u0hz&format=geojson","felt":49,"cdi":4.6,"mmi":5.32,"alert":"green","status":"reviewed","tsunami":0,"sig":423,"net":"us","code":"6000u0hz","ids":",us6000u0hz,","sources":",us,","types":",dyfi,ground-failure,losspager,origin,phase-data,shakemap,","nst":70,"dmin":6.444,"rms":0.63,"gap":125,"magType":"mb","type":"earthquake","title":"M 5.1 - 34 km NNW of Bāgeshwar, India"},"geometry":{"type":"Point","coordinates":[79.6148,30.1171,10]},"id":"us6000u0hz"},{"type":"Feature","properties":{"mag":5.9,"place":"264 km SSW of Severo-Kuril’sk, Russia","time":1791305301805,"updated":1791312832600,"tz":null,"url":"https://earthquake.usgs.gov/earthquakes/eventpage/us6000u0hy","detail":"https://earthquake.usgs.gov/fdsnws/event/1/query?eventid=us6000u0hy&format=geojson","felt":null,"cdi":null,"mmi":3.825,"alert":"green","status":"reviewed","tsunami":0,"sig":536,"net":"us","code":"6000u0hy","ids":",usauto6000u0hy,us6000u0hy,","sources":",usauto,us,","types":",internal-moment-tensor,losspager,moment-tensor,origin,phase-data,shakemap,","nst":216,"dmin":5.006,"rms":0.67,"gap":47,"magType":"mww","type":"earthquake","title":"M 5.9 - 264 km SSW of Severo-Kuril’sk, Russia"},"geometry":{"type":"Point","coordinates":[154.8085,48.4554,26.047]},"id":"us6000u0hy"},{"type":"Feature","properties":{"mag":4.7,"place":"Chagos Archipelago region","time":1791299529822,"updated":1791303185040,"tz":null,"url":"https://earthquake.usgs.gov/earthquakes/eventpage/us6000u01m","detail":"https://earthquake.usgs.gov/fdsnws/event/1/query?eventid=us6000u01m&format=geojson","felt":null,"cdi":null,"mmi":null,"alert":null,"status":"reviewed","tsunami":0,"sig":340,"net":"us","code":"6000u01m","ids":",us6000u01m,","sources":",us,","types":",origin,phase-data,","nst":92,"dmin":0.738,"rms":0.6,"gap":49,"magType":"mb","type":"earthquake","title":"M 4.7 - Chagos Archipelago region"},"geometry":{"type":"Point","coordinates":[72.295,-6.6864,10]},"id":"us6000u01m"},{"type":"Feature","properties":{"mag":4.5,"place":"Kermadec Islands region","time":1791293182092,"updated":1791300896040,"tz":null,"url":"https://earthquake.usgs.gov/earthquakes/eventpage/us6000tzwi","detail":"https://earthquake.usgs.gov/fdsnws/event/1/query?eventid=us6000tzwi&format=geojson","felt":null,"cdi":null,"mmi":null,"alert":null,"status":"reviewed","tsunami":0,"sig":312,"net":"us","code":"6000tzwi","ids":",us6000tzwi,","sources":",us,","types":",origin,phase-data,","nst":88,"dmin":3.284,"rms":0.54,"gap":56,"magType":"mb","type":"earthquake","title":"M 4.5 - Kermadec Islands region"},"geometry":{"type":"Point","coordinates":[178.7672,-30.8569,537.886]},"id":"us6000tzwi"},{"type":"Feature","properties":{"mag":4.9,"place":"48 km NNE of Semporna, Malaysia","time":1791292282577,"updated":1791301926274,"tz":null,"url":"https://earthquake.usgs.gov/earthquakes/eventpage/us6000tzwg","detail":"https://earthquake.usgs.gov/fdsnws/event/1/query?eventid=us6000tzwg&format=geojson","felt":3,"cdi":3.3,"mmi":null,"alert":null,"status":"reviewed","tsunami":0,"sig":370,"net":"us","code":"6000tzwg","ids":",us6000tzwg,","sources":",us,","types":",dyfi,origin,phase-data,","nst":82,"dmin":7.022,"rms":0.55,"gap":86,"magType":"mww","type":"earthquake","title":"M 4.9 - 48 km NNE of Semporna, Malaysia"},"geometry":{"type":"Point","coordinates":[118.8285,4.8667,10]},"id":"us6000tzwg"},{"type":"Feature","properties":{"mag":4.9,"place":"55 km ESE of Kokopo, Papua New Guinea","time":1791276326946,"updated":1791277967040,"tz":null,"url":"https://earthquake.usgs.gov/earthquakes/eventpage/us6000tzvn","detail":"https://earthquake.usgs.gov/fdsnws/event/1/query?eventid=us6000tzvn&format=geojson","felt":null,"cdi":null,"mmi":null,"alert":null,"status":"reviewed","tsunami":0,"sig":369,"net":"us","code":"6000tzvn","ids":",us6000tzvn,","sources":",us,","types":",origin,phase-data,","nst":19,"dmin":0.652,"rms":1.12,"gap":207,"magType":"mb","type":"earthquake","title":"M 4.9 - 55 km ESE of Kokopo, Papua New Guinea"},"geometry":{"type":"Point","coordinates":[152.7519,-4.4773,20.643]},"id":"us6000tzvn"},{"type":"Feature","properties":{"mag":4.5,"place":"60 km WNW of Colchani, Bolivia","time":1791269650618,"updated":1791272062040,"tz":null,"url":"https://earthquake.usgs.gov/earthquakes/eventpage/us6000tzva","detail":"https://earthquake.usgs.gov/fdsnws/event/1/query?eventid=us6000tzva&format=geojson","felt":null,"cdi":null,"mmi":null,"alert":null,"status":"reviewed","tsunami":0,"sig":312,"net":"us","code":"6000tzva","ids":",us6000tzva,","sources":",us,","types":",origin,phase-data,","nst":37,"dmin":1.633,"rms":1.09,"gap":66,"magType":"mb","type":"earthquake","title":"M 4.5 - 60 km WNW of Colchani, Bolivia"},"geometry":{"type":"Point","coordinates":[-67.4214,-20.0088,191.741]},"id":"us6000tzva"},{"type":"Feature","properties":{"mag":4.7,"place":"36 km WNW of Ollagüe, Chile","time":1791267393173,"updated":1791268566040,"tz":null,"url":"https://earthquake.usgs.gov/earthquakes/eventpage/us6000tzv6","detail":"https://earthquake.usgs.gov/fdsnws/event/1/query?eventid=us6000tzv6&format=geojson","felt":null,"cdi":null,"mmi":null,"alert":null,"status":"reviewed","tsunami":0,"sig":340,"net":"us","code":"6000tzv6","ids":",us6000tzv6,","sources":",us,","types":",moment-tensor,origin,phase-data,","nst":112,"dmin":0.834,"rms":0.69,"gap":44,"magType":"mww","type":"earthquake","title":"M 4.7 - 36 km WNW of Ollagüe, Chile"},"geometry":{"type":"Point","coordinates":[-68.6026,-21.1586,122.011]},"id":"us6000tzv6"},{"type":"Feature","properties":{"mag":4.9,"place":"State of Yap, Federated States of Micronesia","time":1791261628098,"updated":1791262737040,"tz":null,"url":"https://earthquake.usgs.gov/earthquakes/eventpage/us6000tzus","detail":"https://earthquake.usgs.gov/fdsnws/event/1/query?eventid=us6000tzus&format=geojson","felt":null,"cdi":null,"mmi":null,"alert":null,"status":"reviewed","tsunami":0,"sig":369,"net":"us","code":"6000tzus","ids":",us6000tzus,","sources":",us,","types":",origin,phase-data,","nst":35,"dmin":7.422,"rms":0.67,"gap":88,"magType":"mb","type":"earthquake","title":"M 4.9 - State of Yap, Federated States of Micronesia"},"geometry":{"type":"Point","coordinates":[144.4068,6.7818,10]},"id":"us6000tzus"},{"type":"Feature","properties":{"mag":4.6,"place":"Izu Islands, Japan region","time":1791260916912,"updated":1791262292040,"tz":null,"url":"https://earthquake.usgs.gov/earthquakes/eventpage/us6000tzuq","detail":"https://earthquake.usgs.gov/fdsnws/event/1/query?eventid=us6000tzuq&format=geojson","felt":null,"cdi":null,"mmi":null,"alert":null,"status":"reviewed","tsunami":0,"sig":326,"net":"us","code":"6000tzuq","ids":",us6000tzuq,","sources":",us,","types":",origin,phase-data,","nst":34,"dmin":8.453,"rms":0.6,"gap":138,"magType":"mb","type":"earthquake","title":"M 4.6 - Izu Islands, Japan region"},"geometry":{"type":"Point","coordinates":[142.845,29.02,10]},"id":"us6000tzuq"},{"type":"Feature","properties":{"mag":4.8,"place":"86 km N of Ruteng, Indonesia","time":1791258163999,"updated":1791259246040,"tz":null,"url":"https://earthquake.usgs.gov/earthquakes/eventpage/us6000tzuj","detail":"https://earthquake.usgs.gov/fdsnws/event/1/query?eventid=us6000tzuj&format=geojson","felt":null,"cdi":null,"mmi":null,"alert":null,"status":"reviewed","tsunami":0,"sig":354,"net":"us","code":"6000tzuj","ids":",us6000tzuj,","sources":",us,","types":",origin,phase-data,","nst":33,"dmin":2.871,"rms":0.99,"gap":123,"magType":"mb","type":"earthquake","title":"M 4.8 - 86 km N of Ruteng, Indonesia"},"geometry":{"type":"Point","coordinates":[120.3932,-7.8323,8.653]},"id":"us6000tzuj"},{"type":"Feature","properties":{"mag":4.6,"place":"31 km S of Tezpur, India","time":1791240822181,"updated":1791255504903,"tz":null,"url":"https://earthquake.usgs.gov/earthquakes/eventpage/us6000tzth","detail":"https://earthquake.usgs.gov/fdsnws/event/1/query?eventid=us6000tzth&format=geojson","felt":3,"cdi":3.4,"mmi":null,"alert":null,"status":"reviewed","tsunami":0,"sig":327,"net":"us","code":"6000tzth","ids":",us6000tzth,","sources":",us,","types":",dyfi,origin,phase-data,","nst":51,"dmin":5.467,"rms":0.82,"gap":85,"magType":"mb","type":"earthquake","title":"M 4.6 - 31 km S of Tezpur, India"},"geometry":{"type":"Point","coordinates":[92.8359,26.3539,10]},"id":"us6000tzth"},{"type":"Feature","properties":{"mag":4.8,"place":"146 km WNW of Panguna, Papua New Guinea","time":1791240533669,"updated":1791254819040,"tz":null,"url":"https://earthquake.usgs.gov/earthquakes/eventpage/us6000tztg","detail":"https://earthquake.usgs.gov/fdsnws/event/1/query?eventid=us6000tztg&format=geojson","felt":null,"cdi":null,"mmi":null,"alert":null,"status":"reviewed","tsunami":0,"sig":354,"net":"us","code":"6000tztg","ids":",us6000tztg,","sources":",us,","types":",origin,phase-data,","nst":36,"dmin":2.633,"rms":0.51,"gap":89,"magType":"mb","type":"earthquake","title":"M 4.8 - 146 km WNW of Panguna, Papua New Guinea"},"geometry":{"type":"Point","coordinates":[154.2682,-5.7949,142.487]},"id":"us6000tztg"},{"type":"Feature","properties":{"mag":4.5,"place":"39 km SW of Tambolaka, Indonesia","time":1791236285713,"updated":1791253281040,"tz":null,"url":"https://earthquake.usgs.gov/earthquakes/eventpage/us6000tzss","detail":"https://earthquake.usgs.gov/fdsnws/event/1/query?eventid=us6000tzss&format=geojson","felt":null,"cdi":null,"mmi":null,"alert":null,"status":"reviewed","tsunami":0,"sig":312,"net":"us","code":"6000tzss","ids":",us6000tzss,","sources":",us,","types":",origin,phase-data,","nst":34,"dmin":4.688,"rms":0.84,"gap":96,"magType":"mb","type":"earthquake","title":"M 4.5 - 39 km SW of Tambolaka, Indonesia"},"geometry":{"type":"Point","coordinates":[118.9729,-9.6687,35]},"id":"us6000tzss"},{"type":"Feature","properties":{"mag":5,"place":"south of the Fiji Islands","time":1791231779243,"updated":1791233096040,"tz":null,"url":"https://earthquake.usgs.gov/earthquakes/eventpage/us6000tzsc","detail":"https://earthquake.usgs.gov/fdsnws/event/1/query?eventid=us6000tzsc&format=geojson","felt":null,"cdi":null,"mmi":null,"alert":null,"status":"reviewed","tsunami":0,"sig":385,"net":"us","code":"6000tzsc","ids":",us6000tzsc,","sources":",us,","types":",origin,phase-data,","nst":61,"dmin":5.209,"rms":0.63,"gap":66,"magType":"mb","type":"earthquake","title":"M 5.0 - south of the Fiji Islands"},"geometry":{"type":"Point","coordinates":[179.8108,-24.4235,518.638]},"id":"us6000tzsc"},{"type":"Feature","properties":{"mag":4.6,"place":"12 km ENE of Metahāra, Ethiopia","time":1791229675779,"updated":1791230685040,"tz":null,"url":"https://earthquake.usgs.gov/earthquakes/eventpage/us6000tzry","detail":"https://earthquake.usgs.gov/fdsnws/event/1/query?eventid=us6000tzry&format=geojson","felt":null,"cdi":null,"mmi":null,"alert":null,"status":"reviewed","tsunami":0,"sig":326,"net":"us","code":"6000tzry","ids":",us6000tzry,","sources":",us,","types":",origin,phase-data,","nst":45,"dmin":3.784,"rms":0.6,"gap":121,"magType":"mb","type":"earthquake","title":"M 4.6 - 12 km ENE of Metahāra, Ethiopia"},"geometry":{"type":"Point","coordinates":[40.0091,8.9608,10]},"id":"us6000tzry"},{"type":"Feature","properties":{"mag":4.7,"place":"105 km WNW of Höfn, Iceland","time":1791221304530,"updated":1791222845040,"tz":null,"url":"https://earthquake.usgs.gov/earthquakes/eventpage/us6000tzpq","detail":"https://earthquake.usgs.gov/fdsnws/event/1/query?eventid=us6000tzpq&format=geojson","felt":null,"cdi":null,"mmi":null,"alert":null,"status":"reviewed","tsunami":0,"sig":340,"net":"us","code":"6000tzpq","ids":",us6000tzpq,","sources":",us,","types":",moment-tensor,origin,phase-data,","nst":99,"dmin":1.746,"rms":0.8,"gap":68,"magType":"mww","type":"earthquake","title":"M 4.7 - 105 km WNW of Höfn, Iceland"},"geometry":{"type":"Point","coordinates":[-17.3115,64.5091,10]},"id":"us6000tzpq"},{"type":"Feature","properties":{"mag":4.7,"place":"75 km NNE of Yonakuni, Japan","time":1791207045560,"updated":1791209516040,"tz":null,"url":"https://earthquake.usgs.gov/earthquakes/eventpage/us6000tznu","detail":"https://earthquake.usgs.gov/fdsnws/event/1/query?eventid=us6000tznu&format=geojson","felt":null,"cdi":null,"mmi":null,"alert":null,"status":"reviewed","tsunami":0,"sig":340,"net":"us","code":"6000tznu","ids":",us6000tznu,","sources":",us,","types":",origin,phase-data,","nst":90,"dmin":0.676,"rms":0.76,"gap":71,"magType":"mb","type":"earthquake","title":"M 4.7 - 75 km NNE of Yonakuni, Japan"},"geometry":{"type":"Point","coordinates":[123.2696,25.1037,156.219]},"id":"us6000tznu"},{"type":"Feature","properties":{"mag":4.6,"place":"21 km S of Luganville, Vanuatu","time":1791200827753,"updated":1791265536792,"tz":null,"url":"https://earthquake.usgs.gov/earthquakes/eventpage/us6000tznh","detail":"https://earthquake.usgs.gov/fdsnws/event/1/query?eventid=us6000tznh&format=geojson","felt":1,"cdi":2.7,"mmi":null,"alert":null,"status":"reviewed","tsunami":0,"sig":326,"net":"us","code":"6000tznh","ids":",us6000tznh,","sources":",us,","types":",dyfi,origin,phase-data,","nst":34,"dmin":5.525,"rms":0.65,"gap":130,"magType":"mb","type":"earthquake","title":"M 4.6 - 21 km S of Luganville, Vanuatu"},"geometry":{"type":"Point","coordinates":[167.1484,-15.7157,35]},"id":"us6000tznh"},{"type":"Feature","properties":{"mag":5,"place":"187 km ENE of Saipan, Northern Mariana Islands","time":1791197529844,"updated":1791370942916,"tz":null,"url":"https://earthquake.usgs.gov/earthquakes/eventpage/us6000tzna","detail":"https://earthquake.usgs.gov/fdsnws/event/1/query?eventid=us6000tzna&format=geojson","felt":null,"cdi":null,"mmi":null,"alert":null,"status":"reviewed","tsunami":0,"sig":385,"net":"us","code":"6000tzna","ids":",us6000tzna,","sources":",us,","types":",event-sequence,oaf,origin,phase-data,","nst":74,"dmin":1.646,"rms":0.71,"gap":80,"magType":"mb","type":"earthquake","title":"M 5.0 - 187 km ENE of Saipan, Northern Mariana Islands"},"geometry":{"type":"Point","coordinates":[147.395,15.8046,10]},"id":"us6000tzna"},{"type":"Feature","properties":{"mag":4.9,"place":"Volcano Islands, Japan region","time":1791184418006,"updated":1791186032040,"tz":null,"url":"https://earthquake.usgs.gov/earthquakes/eventpage/us6000tzmt","detail":"https://earthquake.usgs.gov/fdsnws/event/1/query?eventid=us6000tzmt&format=geojson","felt":null,"cdi":null,"mmi":null,"alert":null,"status":"reviewed","tsunami":0,"sig":369,"net":"us","code":"6000tzmt","ids":",us6000tzmt,","sources":",us,","types":",origin,phase-data,","nst":99,"dmin":7.752,"rms":0.57,"gap":96,"magType":"mb","type":"earthquake","title":"M 4.9 - Volcano Islands, Japan region"},"geometry":{"type":"Point","coordinates":[144.0442,22.8488,35]},"id":"us6000tzmt"},{"type":"Feature","properties":{"mag":4.8,"place":"191 km ESE of Sarangani, Philippines","time":1791180855888,"updated":1791182440040,"tz":null,"url":"https://earthquake.usgs.gov/earthquakes/eventpage/us6000tzmk","detail":"https://earthquake.usgs.gov/fdsnws/event/1/query?eventid=us6000tzmk&format=geojson","felt":null,"cdi":null,"mmi":null,"alert":null,"status":"reviewed","tsunami":0,"sig":354,"net":"us","code":"6000tzmk","ids":",us6000tzmk,","sources":",us,","types":",origin,phase-data,","nst":65,"dmin":2.891,"rms":0.66,"gap":85,"magType":"mb","type":"earthquake","title":"M 4.8 - 191 km ESE of Sarangani, Philippines"},"geometry":{"type":"Point","coordinates":[126.9394,4.4975,51.291]},"id":"us6000tzmk"},{"type":"Feature","properties":{"mag":5,"place":"71 km E of ‘Ohonua, Tonga","time":1791178004808,"updated":1791179210040,"tz":null,"url":"https://earthquake.usgs.gov/earthquakes/eventpage/us6000tzme","detail":"https://earthquake.usgs.gov/fdsnws/event/1/query?eventid=us6000tzme&format=geojson","felt":null,"cdi":null,"mmi":null,"alert":null,"status":"reviewed","tsunami":0,"sig":385,"net":"us","code":"6000tzme","ids":",us6000tzme,","sources":",us,","types":",origin,phase-data,","nst":55,"dmin":21.03,"rms":0.54,"gap":69,"magType":"mb","type":"earthquake","title":"M 5.0 - 71 km E of ‘Ohonua, Tonga"},"geometry":{"type":"Point","coordinates":[-174.2679,-21.4208,10]},"id":"us6000tzme"},{"type":"Feature","properties":{"mag":4.5,"place":"Kuril Islands","time":1791173783636,"updated":1791174967040,"tz":null,"url":"https://earthquake.usgs.gov/earthquakes/eventpage/us6000tzm7","detail":"https://earthquake.usgs.gov/fdsnws/event/1/query?eventid=us6000tzm7&format=geojson","felt":null,"cdi":null,"mmi":null,"alert":null,"status":"reviewed","tsunami":0,"sig":312,"net":"us","code":"6000tzm7","ids":",us6000tzm7,","sources":",us,","types":",origin,phase-data,","nst":41,"dmin":6.373,"rms":0.94,"gap":136,"magType":"mb","type":"earthquake","title":"M 4.5 - Kuril Islands"},"geometry":{"type":"Point","coordinates":[151.8684,45.953,35]},"id":"us6000tzm7"},{"type":"Feature","properties":{"mag":5.3,"place":"central Mid-Atlantic Ridge","time":1791163130392,"updated":1791164149040,"tz":null,"url":"https://earthquake.usgs.gov/earthquakes/eventpage/us6000tzlp","detail":"https://earthquake.usgs.gov/fdsnws/event/1/query?eventid=us6000tzlp&format=geojson","felt":null,"cdi":null,"mmi":null,"alert":null,"status":"reviewed","tsunami":0,"sig":432,"net":"us","code":"6000tzlp","ids":",us6000tzlp,","sources":",us,","types":",origin,phase-data,","nst":71,"dmin":9.312,"rms":0.81,"gap":46,"magType":"mb","type":"earthquake","title":"M 5.3 - central Mid-Atlantic Ridge"},"geometry":{"type":"Point","coordinates":[-19.965,-0.4325,10]},"id":"us6000tzlp"},{"type":"Feature","properties":{"mag":4.8,"place":"32 km SSE of Jurm, Afghanistan","time":1791145645597,"updated":1791173978668,"tz":null,"url":"https://earthquake.usgs.gov/earthquakes/eventpage/us6000tzkn","detail":"https://earthquake.usgs.gov/fdsnws/event/1/query?eventid=us6000tzkn&format=geojson","felt":1,"cdi":2,"mmi":null,"alert":null,"status":"reviewed","tsunami":0,"sig":355,"net":"us","code":"6000tzkn","ids":",us6000tzkn,","sources":",us,","types":",dyfi,origin,phase-data,","nst":97,"dmin":2.06,"rms":0.97,"gap":43,"magType":"mb","type":"earthquake","title":"M 4.8 - 32 km SSE of Jurm, Afghanistan"},"geometry":{"type":"Point","coordinates":[71.0216,36.611,248.906]},"id":"us6000tzkn"},{"type":"Feature","properties":{"mag":5,"place":"295 km S of Burica, Panama","time":1791122770385,"updated":1791124122040,"tz":null,"url":"https://earthquake.usgs.gov/earthquakes/eventpage/us6000tzj8","detail":"https://earthquake.usgs.gov/fdsnws/event/1/query?eventid=us6000tzj8&format=geojson","felt":null,"cdi":null,"mmi":null,"alert":null,"status":"reviewed","tsunami":0,"sig":385,"net":"us","code":"6000tzj8","ids":",us6000tzj8,","sources":",us,","types":",origin,phase-data,","nst":61,"dmin":3.903,"rms":1.44,"gap":64,"magType":"mww","type":"earthquake","title":"M 5.0 - 295 km S of Burica, Panama"},"geometry":{"type":"Point","coordinates":[-82.7171,5.3695,10]},"id":"us6000tzj8"},{"type":"Feature","properties":{"mag":4.6,"place":"110 km S of Dampit, Indonesia","time":1791117407744,"updated":1791119117040,"tz":null,"url":"https://earthquake.usgs.gov/earthquakes/eventpage/us6000tziz","detail":"https://earthquake.usgs.gov/fdsnws/event/1/query?eventid=us6000tziz&format=geojson","felt":null,"cdi":null,"mmi":null,"alert":null,"status":"reviewed","tsunami":0,"sig":326,"net":"us","code":"6000tziz","ids":",us6000tziz,","sources":",us,","types":",origin,phase-data,","nst":39,"dmin":6.961,"rms":0.83,"gap":79,"magType":"mb","type":"earthquake","title":"M 4.6 - 110 km S of Dampit, Indonesia"},"geometry":{"type":"Point","coordinates":[112.6395,-9.2014,52.773]},"id":"us6000tziz"},{"type":"Feature","properties":{"mag":5,"place":"21 km ESE of Feke, Turkey","time":1791114203167,"updated":1791224459879,"tz":null,"url":"https://earthquake.usgs.gov/earthquakes/eventpage/us6000tzip","detail":"https://earthquake.usgs.gov/fdsnws/event/1/query?eventid=us6000tzip&format=geojson","felt":3,"cdi":4.1,"mmi":null,"alert":null,"status":"reviewed","tsunami":0,"sig":386,"net":"us","code":"6000tzip","ids":",us6000tzip,","sources":",us,","types":",dyfi,moment-tensor,origin,phase-data,","nst":121,"dmin":0.228,"rms":0.85,"gap":46,"magType":"mww","type":"earthquake","title":"M 5.0 - 21 km ESE of Feke, Turkey"},"geometry":{"type":"Point","coordinates":[36.1272,37.7292,10]},"id":"us6000tzip"},{"type":"Feature","properties":{"mag":4.7,"place":"22 km E of Feke, Turkey","time":1791113786451,"updated":1791118593040,"tz":null,"url":"https://earthquake.usgs.gov/earthquakes/eventpage/us6000tzil","detail":"https://earthquake.usgs.gov/fdsnws/event/1/query?eventid=us6000tzil&format=geojson","felt":null,"cdi":null,"mmi":null,"alert":null,"status":"reviewed","tsunami":0,"sig":340,"net":"us","code":"6000tzil","ids":",us6000tzil,","sources":",us,","types":",moment-tensor,origin,phase-data,","nst":61,"dmin":0.24,"rms":0.83,"gap":35,"magType":"mww","type":"earthquake","title":"M 4.7 - 22 km E of Feke, Turkey"},"geometry":{"type":"Point","coordinates":[36.1685,37.7757,10]},"id":"us6000tzil"},{"type":"Feature","properties":{"mag":4.7,"place":"21 km SSE of Saimbeyli, Turkey","time":1791112766314,"updated":1791185088620,"tz":null,"url":"https://earthquake.usgs.gov/earthquakes/eventpage/us6000tzif","detail":"https://earthquake.usgs.gov/fdsnws/event/1/query?eventid=us6000tzif&format=geojson","felt":null,"cdi":null,"mmi":null,"alert":null,"status":"reviewed","tsunami":0,"sig":340,"net":"us","code":"6000tzif","ids":",us6000tzif,","sources":",us,","types":",moment-tensor,origin,phase-data,","nst":77,"dmin":0.26,"rms":0.58,"gap":45,"magType":"mww","type":"earthquake","title":"M 4.7 - 21 km SSE of Saimbeyli, Turkey"},"geometry":{"type":"Point","coordinates":[36.1749,37.8028,10]},"id":"us6000tzif"},{"type":"Feature","properties":{"mag":5.1,"place":"Volcano Islands, Japan region","time":1791112368352,"updated":1791221615040,"tz":null,"url":"https://earthquake.usgs.gov/earthquakes/eventpage/us6000tzid","detail":"https://earthquake.usgs.gov/fdsnws/event/1/query?eventid=us6000tzid&format=geojson","felt":null,"cdi":null,"mmi":0,"alert":"green","status":"reviewed","tsunami":0,"sig":400,"net":"us","code":"6000tzid","ids":",us6000tzid,","sources":",us,","types":",losspager,moment-tensor,origin,phase-data,shakemap,","nst":101,"dmin":12.601,"rms":0.69,"gap":80,"magType":"mww","type":"earthquake","title":"M 5.1 - Volcano Islands, Japan region"},"geometry":{"type":"Point","coordinates":[144.6508,22.8191,10]},"id":"us6000tzid"},{"type":"Feature","properties":{"mag":4.6,"place":"121 km SW of Kokopo, Papua New Guinea","time":1791112187398,"updated":1791116316040,"tz":null,"url":"https://earthquake.usgs.gov/earthquakes/eventpage/us6000tzic","detail":"https://earthquake.usgs.gov/fdsnws/event/1/query?eventid=us6000tzic&format=geojson","felt":null,"cdi":null,"mmi":null,"alert":null,"status":"reviewed","tsunami":0,"sig":326,"net":"us","code":"6000tzic","ids":",us6000tzic,","sources":",us,","types":",origin,phase-data,","nst":57,"dmin":1.122,"rms":0.64,"gap":98,"magType":"mb","type":"earthquake","title":"M 4.6 - 121 km SW of Kokopo, Papua New Guinea"},"geometry":{"type":"Point","coordinates":[151.4257,-5.0439,162.143]},"id":"us6000tzic"},{"type":"Feature","properties":{"mag":4.8,"place":"43 km N of Ruteng, Indonesia","time":1791111147344,"updated":1791112480040,"tz":null,"url":"https://earthquake.usgs.gov/earthquakes/eventpage/us6000tzi8","detail":"https://earthquake.usgs.gov/fdsnws/event/1/query?eventid=us6000tzi8&format=geojson","felt":null,"cdi":null,"mmi":null,"alert":null,"status":"reviewed","tsunami":0,"sig":354,"net":"us","code":"6000tzi8","ids":",us6000tzi8,","sources":",us,","types":",origin,phase-data,","nst":35,"dmin":3.281,"rms":0.75,"gap":66,"magType":"mb","type":"earthquake","title":"M 4.8 - 43 km N of Ruteng, Indonesia"},"geometry":{"type":"Point","coordinates":[120.5325,-8.2236,10]},"id":"us6000tzi8"},{"type":"Feature","properties":{"mag":5,"place":"37 km N of Ruteng, Indonesia","time":1791108787298,"updated":1791109868040,"tz":null,"url":"https://earthquake.usgs.gov/earthquakes/eventpage/us6000tzi5","detail":"https://earthquake.usgs.gov/fdsnws/event/1/query?eventid=us6000tzi5&format=geojson","felt":null,"cdi":null,"mmi":null,"alert":null,"status":"reviewed","tsunami":0,"sig":385,"net":"us","code":"6000tzi5","ids":",us6000tzi5,","sources":",us,","types":",origin,phase-data,","nst":54,"dmin":3.308,"rms":1,"gap":69,"magType":"mb","type":"earthquake","title":"M 5.0 - 37 km N of Ruteng, Indonesia"},"geometry":{"type":"Point","coordinates":[120.4532,-8.2698,10]},"id":"us6000tzi5"},{"type":"Feature","properties":{"mag":4.6,"place":"121 km WNW of Chauk, Burma (Myanmar)","time":1791093306861,"updated":1791095004040,"tz":null,"url":"https://earthquake.usgs.gov/earthquakes/eventpage/us6000tzh0","detail":"https://earthquake.usgs.gov/fdsnws/event/1/query?eventid=us6000tzh0&format=geojson","felt":null,"cdi":null,"mmi":null,"alert":null,"status":"reviewed","tsunami":0,"sig":326,"net":"us","code":"6000tzh0","ids":",us6000tzh0,","sources":",us,","types":",origin,phase-data,","nst":51,"dmin":5.49,"rms":0.67,"gap":91,"magType":"mb","type":"earthquake","title":"M 4.6 - 121 km WNW of Chauk, Burma (Myanmar)"},"geometry":{"type":"Point","coordinates":[93.7503,21.3382,58.258]},"id":"us6000tzh0"},{"type":"Feature","properties":{"mag":4.9,"place":"South Sandwich Islands region","time":1791078472030,"updated":1791083527040,"tz":null,"url":"https://earthquake.usgs.gov/earthquakes/eventpage/us6000tzg0","detail":"https://earthquake.usgs.gov/fdsnws/event/1/query?eventid=us6000tzg0&format=geojson","felt":null,"cdi":null,"mmi":null,"alert":null,"status":"reviewed","tsunami":0,"sig":369,"net":"us","code":"6000tzg0","ids":",us6000tzg0,","sources":",us,","types":",origin,phase-data,","nst":23,"dmin":8.283,"rms":1.11,"gap":98,"magType":"mb","type":"earthquake","title":"M 4.9 - South Sandwich Islands region"},"geometry":{"type":"Point","coordinates":[-23.3522,-58.1594,10]},"id":"us6000tzg0"},{"type":"Feature","properties":{"mag":4.9,"place":"21 km NE of Lae, Papua New Guinea","time":1791077926078,"updated":1791079052040,"tz":null,"url":"https://earthquake.usgs.gov/earthquakes/eventpage/us6000tzfv","detail":"https://earthquake.usgs.gov/fdsnws/event/1/query?eventid=us6000tzfv&format=geojson","felt":null,"cdi":null,"mmi":null,"alert":null,"status":"reviewed","tsunami":0,"sig":369,"net":"us","code":"6000tzfv","ids":",us6000tzfv,","sources":",us,","types":",origin,phase-data,","nst":36,"dmin":2.795,"rms":0.79,"gap":121,"magType":"mb","type":"earthquake","title":"M 4.9 - 21 km NE of Lae, Papua New Guinea"},"geometry":{"type":"Point","coordinates":[147.1353,-6.5916,94.221]},"id":"us6000tzfv"},{"type":"Feature","properties":{"mag":5.3,"place":"81 km SSW of Banda Aceh, Indonesia","time":1791070654235,"updated":1791157367273,"tz":null,"url":"https://earthquake.usgs.gov/earthquakes/eventpage/us6000tzfg","detail":"https://earthquake.usgs.gov/fdsnws/event/1/query?eventid=us6000tzfg&format=geojson","felt":null,"cdi":null,"mmi":4.244,"alert":"green","status":"reviewed","tsunami":0,"sig":432,"net":"us","code":"6000tzfg","ids":",us6000tzfg,","sources":",us,","types":",losspager,moment-tensor,origin,phase-data,shakemap,","nst":92,"dmin":5.485,"rms":0.83,"gap":65,"magType":"mww","type":"earthquake","title":"M 5.3 - 81 km SSW of Banda Aceh, Indonesia"},"geometry":{"type":"Point","coordinates":[95.1622,4.8247,56.274]},"id":"us6000tzfg"},{"type":"Feature","properties":{"mag":4.5,"place":"293 km SSE of Tabiauan, Philippines","time":1791069275782,"updated":1791070785040,"tz":null,"url":"https://earthquake.usgs.gov/earthquakes/eventpage/us6000tzf7","detail":"https://earthquake.usgs.gov/fdsnws/event/1/query?eventid=us6000tzf7&format=geojson","felt":null,"cdi":null,"mmi":null,"alert":null,"status":"reviewed","tsunami":0,"sig":312,"net":"us","code":"6000tzf7","ids":",us6000tzf7,","sources":",us,","types":",origin,phase-data,","nst":55,"dmin":4.348,"rms":0.68,"gap":77,"magType":"mb","type":"earthquake","title":"M 4.5 - 293 km SSE of Tabiauan, Philippines"},"geometry":{"type":"Point","coordinates":[122.9296,3.5895,575.042]},"id":"us6000tzf7"},{"type":"Feature","properties":{"mag":5.9,"place":"39 km WSW of Tambolaka, Indonesia","time":1791068155358,"updated":1791224735012,"tz":null,"url":"https://earthquake.usgs.gov/earthquakes/eventpage/us6000tzer","detail":"https://earthquake.usgs.gov/fdsnws/event/1/query?eventid=us6000tzer&format=geojson","felt":5,"cdi":4.5,"mmi":5.128,"alert":"green","status":"reviewed","tsunami":0,"sig":538,"net":"us","code":"6000tzer","ids":",us6000tzer,usauto6000tzer,","sources":",us,usauto,","types":",dyfi,ground-failure,internal-moment-tensor,losspager,moment-tensor,origin,phase-data,shakemap,","nst":82,"dmin":4.6,"rms":1.29,"gap":63,"magType":"mww","type":"earthquake","title":"M 5.9 - 39 km WSW of Tambolaka, Indonesia"},"geometry":{"type":"Point","coordinates":[118.9078,-9.5672,45.951]},"id":"us6000tzer"},{"type":"Feature","properties":{"mag":4.5,"place":"121 km SW of Puerto Madero, Mexico","time":1791059625577,"updated":1791060492040,"tz":null,"url":"https://earthquake.usgs.gov/earthquakes/eventpage/us6000tze6","detail":"https://earthquake.usgs.gov/fdsnws/event/1/query?eventid=us6000tze6&format=geojson","felt":null,"cdi":null,"mmi":null,"alert":null,"status":"reviewed","tsunami":0,"sig":312,"net":"us","code":"6000tze6","ids":",us6000tze6,","sources":",us,","types":",origin,phase-data,","nst":50,"dmin":2.462,"rms":0.9,"gap":165,"magType":"mb","type":"earthquake","title":"M 4.5 - 121 km SW of Puerto Madero, Mexico"},"geometry":{"type":"Point","coordinates":[-93.3523,14.1052,10]},"id":"us6000tze6"},{"type":"Feature","properties":{"mag":5.1,"place":"182 km SSE of Vilyuchinsk, Russia","time":1791057644104,"updated":1791058934040,"tz":null,"url":"https://earthquake.usgs.gov/earthquakes/eventpage/us6000tze2","detail":"https://earthquake.usgs.gov/fdsnws/event/1/query?eventid=us6000tze2&format=geojson","felt":null,"cdi":null,"mmi":null,"alert":null,"status":"reviewed","tsunami":0,"sig":400,"net":"us","code":"6000tze2","ids":",us6000tze2,","sources":",us,","types":",origin,phase-data,","nst":99,"dmin":2.039,"rms":1.07,"gap":135,"magType":"mb","type":"earthquake","title":"M 5.1 - 182 km SSE of Vilyuchinsk, Russia"},"geometry":{"type":"Point","coordinates":[159.8296,51.5457,10]},"id":"us6000tze2"},{"type":"Feature","properties":{"mag":4.9,"place":"72 km NE of Sittwe, Burma (Myanmar)","time":1791051166916,"updated":1791052492040,"tz":null,"url":"https://earthquake.usgs.gov/earthquakes/eventpage/us6000tzdp","detail":"https://earthquake.usgs.gov/fdsnws/event/1/query?eventid=us6000tzdp&format=geojson","felt":null,"cdi":null,"mmi":null,"alert":null,"status":"reviewed","tsunami":0,"sig":369,"net":"us","code":"6000tzdp","ids":",us6000tzdp,","sources":",us,","types":",origin,phase-data,","nst":86,"dmin":1.539,"rms":0.89,"gap":59,"magType":"mb","type":"earthquake","title":"M 4.9 - 72 km NE of Sittwe, Burma (Myanmar)"},"geometry":{"type":"Point","coordinates":[93.3991,20.6061,35]},"id":"us6000tzdp"},{"type":"Feature","properties":{"mag":4.6,"place":"76 km NNE of Lae, Papua New Guinea","time":1791048252545,"updated":1791049953040,"tz":null,"url":"https://earthquake.usgs.gov/earthquakes/eventpage/us6000tzdj","detail":"https://earthquake.usgs.gov/fdsnws/event/1/query?eventid=us6000tzdj&format=geojson","felt":null,"cdi":null,"mmi":null,"alert":null,"status":"reviewed","tsunami":0,"sig":326,"net":"us","code":"6000tzdj","ids":",us6000tzdj,","sources":",us,","types":",origin,phase-data,","nst":34,"dmin":3.333,"rms":0.78,"gap":154,"magType":"mb","type":"earthquake","title":"M 4.6 - 76 km NNE of Lae, Papua New Guinea"},"geometry":{"type":"Point","coordinates":[147.1678,-6.0496,81.86]},"id":"us6000tzdj"},{"type":"Feature","properties":{"mag":4.5,"place":"Kermadec Islands region","time":1791035471299,"updated":1791037310040,"tz":null,"url":"https://earthquake.usgs.gov/earthquakes/eventpage/us6000tzcm","detail":"https://earthquake.usgs.gov/fdsnws/event/1/query?eventid=us6000tzcm&format=geojson","felt":null,"cdi":null,"mmi":null,"alert":null,"status":"reviewed","tsunami":0,"sig":312,"net":"us","code":"6000tzcm","ids":",us6000tzcm,","sources":",us,","types":",origin,phase-data,","nst":29,"dmin":2.217,"rms":0.82,"gap":112,"magType":"mb","type":"earthquake","title":"M 4.5 - Kermadec Islands region"},"geometry":{"type":"Point","coordinates":[-179.4827,-27.4948,453.487]},"id":"us6000tzcm"},{"type":"Feature","properties":{"mag":4.8,"place":"112 km S of Koshima, Japan","time":1791007521157,"updated":1791008752040,"tz":null,"url":"https://earthquake.usgs.gov/earthquakes/eventpage/us6000tzb5","detail":"https://earthquake.usgs.gov/fdsnws/event/1/query?eventid=us6000tzb5&format=geojson","felt":null,"cdi":null,"mmi":null,"alert":null,"status":"reviewed","tsunami":0,"sig":354,"net":"us","code":"6000tzb5","ids":",us6000tzb5,","sources":",us,","types":",origin,phase-data,","nst":70,"dmin":2.285,"rms":0.82,"gap":101,"magType":"mb","type":"earthquake","title":"M 4.8 - 112 km S of Koshima, Japan"},"geometry":{"type":"Point","coordinates":[130.6125,29.221,37.466]},"id":"us6000tzb5"},{"type":"Feature","properties":{"mag":5,"place":"163 km SE of Petropavlovsk-Kamchatsky, Russia","time":1790996346296,"updated":1790997259040,"tz":null,"url":"https://earthquake.usgs.gov/earthquakes/eventpage/us6000tzal","detail":"https://earthquake.usgs.gov/fdsnws/event/1/query?eventid=us6000tzal&format=geojson","felt":null,"cdi":null,"mmi":null,"alert":null,"status":"reviewed","tsunami":0,"sig":385,"net":"us","code":"6000tzal","ids":",us6000tzal,","sources":",us,","types":",origin,phase-data,","nst":64,"dmin":1.952,"rms":0.88,"gap":135,"magType":"mb","type":"earthquake","title":"M 5.0 - 163 km SE of Petropavlovsk-Kamchatsky, Russia"},"geometry":{"type":"Point","coordinates":[160.4217,52.0836,10]},"id":"us6000tzal"},{"type":"Feature","properties":{"mag":4.5,"place":"7 km NNW of Ibusuki, Japan","time":1790986298239,"updated":1791010398579,"tz":null,"url":"https://earthquake.usgs.gov/earthquakes/eventpage/us6000tz9w","detail":"https://earthquake.usgs.gov/fdsnws/event/1/query?eventid=us6000tz9w&format=geojson","felt":1,"cdi":2,"mmi":null,"alert":null,"status":"reviewed","tsunami":0,"sig":312,"net":"us","code":"6000tz9w","ids":",us6000tz9w,","sources":",us,","types":",dyfi,origin,phase-data,","nst":58,"dmin":0.252,"rms":0.98,"gap":122,"magType":"mb","type":"earthquake","title":"M 4.5 - 7 km NNW of Ibusuki, Japan"},"geometry":{"type":"Point","coordinates":[130.6093,31.2953,126.853]},"id":"us6000tz9w"},{"type":"Feature","properties":{"mag":4.8,"place":"121 km SSE of Vilyuchinsk, Russia","time":1790985698784,"updated":1790990350040,"tz":null,"url":"https://earthquake.usgs.gov/earthquakes/eventpage/us6000tz9v","detail":"https://earthquake.usgs.gov/fdsnws/event/1/query?eventid=us6000tz9v&format=geojson","felt":null,"cdi":null,"mmi":null,"alert":null,"status":"reviewed","tsunami":0,"sig":354,"net":"us","code":"6000tz9v","ids":",us6000tz9v,","sources":",us,","types":",origin,phase-data,","nst":59,"dmin":13.625,"rms":0.84,"gap":122,"magType":"mb","type":"earthquake","title":"M 4.8 - 121 km SSE of Vilyuchinsk, Russia"},"geometry":{"type":"Point","coordinates":[159.2731,51.9749,38.69]},"id":"us6000tz9v"},{"type":"Feature","properties":{"mag":4.6,"place":"174 km SSE of Vilyuchinsk, Russia","time":1790985566824,"updated":1790989234040,"tz":null,"url":"https://earthquake.usgs.gov/earthquakes/eventpage/us6000tz9t","detail":"https://earthquake.usgs.gov/fdsnws/event/1/query?eventid=us6000tz9t&format=geojson","felt":null,"cdi":null,"mmi":null,"alert":null,"status":"reviewed","tsunami":0,"sig":326,"net":"us","code":"6000tz9t","ids":",us6000tz9t,","sources":",us,","types":",origin,phase-data,","nst":62,"dmin":1.965,"rms":0.78,"gap":167,"magType":"mb","type":"earthquake","title":"M 4.6 - 174 km SSE of Vilyuchinsk, Russia"},"geometry":{"type":"Point","coordinates":[159.7182,51.5846,10]},"id":"us6000tz9t"},{"type":"Feature","properties":{"mag":4.7,"place":"153 km SSE of Vilyuchinsk, Russia","time":1790985253503,"updated":1790988526040,"tz":null,"url":"https://earthquake.usgs.gov/earthquakes/eventpage/us6000tz9s","detail":"https://earthquake.usgs.gov/fdsnws/event/1/query?eventid=us6000tz9s&format=geojson","felt":null,"cdi":null,"mmi":null,"alert":null,"status":"reviewed","tsunami":0,"sig":340,"net":"us","code":"6000tz9s","ids":",us6000tz9s,","sources":",us,","types":",origin,phase-data,","nst":61,"dmin":1.766,"rms":0.81,"gap":160,"magType":"mb","type":"earthquake","title":"M 4.7 - 153 km SSE of Vilyuchinsk, Russia"},"geometry":{"type":"Point","coordinates":[159.4679,51.7161,35]},"id":"us6000tz9s"},{"type":"Feature","properties":{"mag":4.6,"place":"southern East Pacific Rise","time":1790980733650,"updated":1791116211040,"tz":null,"url":"https://earthquake.usgs.gov/earthquakes/eventpage/us6000tzit","detail":"https://earthquake.usgs.gov/fdsnws/event/1/query?eventid=us6000tzit&format=geojson","felt":null,"cdi":null,"mmi":null,"alert":null,"status":"reviewed","tsunami":0,"sig":326,"net":"us","code":"6000tzit","ids":",us6000tzit,","sources":",us,","types":",origin,phase-data,","nst":20,"dmin":33.419,"rms":0.58,"gap":168,"magType":"mb","type":"earthquake","title":"M 4.6 - southern East Pacific Rise"},"geometry":{"type":"Point","coordinates":[-116.9235,-49.3851,10]},"id":"us6000tzit"},{"type":"Feature","properties":{"mag":4.6,"place":"125 km SSE of Vilyuchinsk, Russia","time":1790975646969,"updated":1791160020040,"tz":null,"url":"https://earthquake.usgs.gov/earthquakes/eventpage/us6000tz8s","detail":"https://earthquake.usgs.gov/fdsnws/event/1/query?eventid=us6000tz8s&format=geojson","felt":null,"cdi":null,"mmi":null,"alert":null,"status":"reviewed","tsunami":0,"sig":326,"net":"us","code":"6000tz8s","ids":",us6000tz8s,","sources":",us,","types":",origin,phase-data,","nst":57,"dmin":18.872,"rms":0.81,"gap":162,"magType":"mb","type":"earthquake","title":"M 4.6 - 125 km SSE of Vilyuchinsk, Russia"},"geometry":{"type":"Point","coordinates":[159.3701,51.9667,35]},"id":"us6000tz8s"},{"type":"Feature","properties":{"mag":5,"place":"171 km SE of Vilyuchinsk, Russia","time":1790974455391,"updated":1790975850040,"tz":null,"url":"https://earthquake.usgs.gov/earthquakes/eventpage/us6000tz8l","detail":"https://earthquake.usgs.gov/fdsnws/event/1/query?eventid=us6000tz8l&format=geojson","felt":null,"cdi":null,"mmi":null,"alert":null,"status":"reviewed","tsunami":0,"sig":385,"net":"us","code":"6000tz8l","ids":",us6000tz8l,","sources":",us,","types":",origin,phase-data,","nst":105,"dmin":1.953,"rms":1.31,"gap":88,"magType":"mb","type":"earthquake","title":"M 5.0 - 171 km SE of Vilyuchinsk, Russia"},"geometry":{"type":"Point","coordinates":[159.8843,51.6886,30.93]},"id":"us6000tz8l"},{"type":"Feature","properties":{"mag":4.7,"place":"52 km SSW of Vilyuchinsk, Russia","time":1790973501109,"updated":1791043327040,"tz":null,"url":"https://earthquake.usgs.gov/earthquakes/eventpage/us6000tzd5","detail":"https://earthquake.usgs.gov/fdsnws/event/1/query?eventid=us6000tzd5&format=geojson","felt":null,"cdi":null,"mmi":null,"alert":null,"status":"reviewed","tsunami":0,"sig":340,"net":"us","code":"6000tzd5","ids":",us6000tzd5,","sources":",us,","types":",origin,phase-data,","nst":59,"dmin":0.614,"rms":0.58,"gap":141,"magType":"mb","type":"earthquake","title":"M 4.7 - 52 km SSW of Vilyuchinsk, Russia"},"geometry":{"type":"Point","coordinates":[158.2168,52.4691,89.108]},"id":"us6000tzd5"},{"type":"Feature","properties":{"mag":4.6,"place":"46 km SSW of Paratunka, Russia","time":1790973468318,"updated":1791043156040,"tz":null,"url":"https://earthquake.usgs.gov/earthquakes/eventpage/us6000tz8g","detail":"https://earthquake.usgs.gov/fdsnws/event/1/query?eventid=us6000tz8g&format=geojson","felt":null,"cdi":null,"mmi":null,"alert":null,"status":"reviewed","tsunami":0,"sig":326,"net":"us","code":"6000tz8g","ids":",us6000tz8g,","sources":",us,","types":",origin,phase-data,","nst":64,"dmin":0.589,"rms":0.64,"gap":95,"magType":"mb","type":"earthquake","title":"M 4.6 - 46 km SSW of Paratunka, Russia"},"geometry":{"type":"Point","coordinates":[158.0496,52.5605,74.647]},"id":"us6000tz8g"},{"type":"Feature","properties":{"mag":4.5,"place":"86 km E of Noda, Japan","time":1790973296862,"updated":1791036300040,"tz":null,"url":"https://earthquake.usgs.gov/earthquakes/eventpage/us6000tz8f","detail":"https://earthquake.usgs.gov/fdsnws/event/1/query?eventid=us6000tz8f&format=geojson","felt":null,"cdi":null,"mmi":null,"alert":null,"status":"reviewed","tsunami":0,"sig":312,"net":"us","code":"6000tz8f","ids":",us6000tz8f,","sources":",us,","types":",origin,phase-data,","nst":66,"dmin":1.54,"rms":0.82,"gap":80,"magType":"mb","type":"earthquake","title":"M 4.5 - 86 km E of Noda, Japan"},"geometry":{"type":"Point","coordinates":[142.8232,40.0341,49.952]},"id":"us6000tz8f"},{"type":"Feature","properties":{"mag":5,"place":"176 km SSE of Vilyuchinsk, Russia","time":1790972848083,"updated":1791294621040,"tz":null,"url":"https://earthquake.usgs.gov/earthquakes/eventpage/us6000tz8c","detail":"https://earthquake.usgs.gov/fdsnws/event/1/query?eventid=us6000tz8c&format=geojson","felt":null,"cdi":null,"mmi":null,"alert":null,"status":"reviewed","tsunami":0,"sig":385,"net":"us","code":"6000tz8c","ids":",us6000tz8c,","sources":",us,","types":",origin,phase-data,","nst":44,"dmin":1.609,"rms":0.74,"gap":156,"magType":"mb","type":"earthquake","title":"M 5.0 - 176 km SSE of Vilyuchinsk, Russia"},"geometry":{"type":"Point","coordinates":[159.612,51.5289,10]},"id":"us6000tz8c"},{"type":"Feature","properties":{"mag":4.6,"place":"67 km ESE of Kokopo, Papua New Guinea","time":1790972762878,"updated":1790976710040,"tz":null,"url":"https://earthquake.usgs.gov/earthquakes/eventpage/us6000tz8b","detail":"https://earthquake.usgs.gov/fdsnws/event/1/query?eventid=us6000tz8b&format=geojson","felt":null,"cdi":null,"mmi":null,"alert":null,"status":"reviewed","tsunami":0,"sig":326,"net":"us","code":"6000tz8b","ids":",us6000tz8b,","sources":",us,","types":",origin,phase-data,","nst":57,"dmin":0.767,"rms":0.93,"gap":94,"magType":"mb","type":"earthquake","title":"M 4.6 - 67 km ESE of Kokopo, Papua New Guinea"},"geometry":{"type":"Point","coordinates":[152.8363,-4.565,86.736]},"id":"us6000tz8b"},{"type":"Feature","properties":{"mag":4.9,"place":"136 km SSE of Vilyuchinsk, Russia","time":1790972729894,"updated":1790974821040,"tz":null,"url":"https://earthquake.usgs.gov/earthquakes/eventpage/us6000tz8a","detail":"https://earthquake.usgs.gov/fdsnws/event/1/query?eventid=us6000tz8a&format=geojson","felt":null,"cdi":null,"mmi":null,"alert":null,"status":"reviewed","tsunami":0,"sig":369,"net":"us","code":"6000tz8a","ids":",us6000tz8a,","sources":",us,","types":",origin,phase-data,","nst":159,"dmin":1.624,"rms":0.59,"gap":125,"magType":"mb","type":"earthquake","title":"M 4.9 - 136 km SSE of Vilyuchinsk, Russia"},"geometry":{"type":"Point","coordinates":[159.3971,51.862,38.829]},"id":"us6000tz8a"},{"type":"Feature","properties":{"mag":5,"place":"179 km SSE of Vilyuchinsk, Russia","time":1790965520940,"updated":1790966786040,"tz":null,"url":"https://earthquake.usgs.gov/earthquakes/eventpage/us6000tz7b","detail":"https://earthquake.usgs.gov/fdsnws/event/1/query?eventid=us6000tz7b&format=geojson","felt":null,"cdi":null,"mmi":null,"alert":null,"status":"reviewed","tsunami":0,"sig":385,"net":"us","code":"6000tz7b","ids":",us6000tz7b,","sources":",us,","types":",origin,phase-data,","nst":90,"dmin":2.015,"rms":0.71,"gap":127,"magType":"mb","type":"earthquake","title":"M 5.0 - 179 km SSE of Vilyuchinsk, Russia"},"geometry":{"type":"Point","coordinates":[159.8307,51.5775,10]},"id":"us6000tz7b"},{"type":"Feature","properties":{"mag":4.5,"place":"56 km SSE of Mawlaik, Burma (Myanmar)","time":1790960133449,"updated":1791052778040,"tz":null,"url":"https://earthquake.usgs.gov/earthquakes/eventpage/us6000tz6z","detail":"https://earthquake.usgs.gov/fdsnws/event/1/query?eventid=us6000tz6z&format=geojson","felt":null,"cdi":null,"mmi":null,"alert":null,"status":"reviewed","tsunami":0,"sig":312,"net":"us","code":"6000tz6z","ids":",us6000tz6z,","sources":",us,","types":",origin,phase-data,","nst":42,"dmin":1.96,"rms":0.74,"gap":69,"magType":"mb","type":"earthquake","title":"M 4.5 - 56 km SSE of Mawlaik, Burma (Myanmar)"},"geometry":{"type":"Point","coordinates":[94.5469,23.1453,103.866]},"id":"us6000tz6z"},{"type":"Feature","properties":{"mag":5.8,"place":"165 km SSE of Vilyuchinsk, Russia","time":1790958881010,"updated":1791045609993,"tz":null,"url":"https://earthquake.usgs.gov/earthquakes/eventpage/us6000tz62","detail":"https://earthquake.usgs.gov/fdsnws/event/1/query?eventid=us6000tz62&format=geojson","felt":null,"cdi":null,"mmi":3.738,"alert":"green","status":"reviewed","tsunami":0,"sig":518,"net":"us","code":"6000tz62","ids":",usauto6000tz62,attmagps,us6000tz62,","sources":",usauto,at,us,","types":",internal-moment-tensor,internal-origin,losspager,moment-tensor,origin,phase-data,shakemap,","nst":119,"dmin":1.894,"rms":0.69,"gap":44,"magType":"mww","type":"earthquake","title":"M 5.8 - 165 km SSE of Vilyuchinsk, Russia"},"geometry":{"type":"Point","coordinates":[159.7398,51.6873,29.477]},"id":"us6000tz62"},{"type":"Feature","properties":{"mag":5,"place":"26 km SSW of Güiria, Venezuela","time":1790958685762,"updated":1791023694988,"tz":null,"url":"https://earthquake.usgs.gov/earthquakes/eventpage/us6000tz5h","detail":"https://earthquake.usgs.gov/fdsnws/event/1/query?eventid=us6000tz5h&format=geojson","felt":1,"cdi":2.7,"mmi":null,"alert":null,"status":"reviewed","tsunami":0,"sig":385,"net":"us","code":"6000tz5h","ids":",us6000tz5h,","sources":",us,","types":",dyfi,origin,phase-data,","nst":92,"dmin":0.444,"rms":1.37,"gap":53,"magType":"mb","type":"earthquake","title":"M 5.0 - 26 km SSW of Güiria, Venezuela"},"geometry":{"type":"Point","coordinates":[-62.4223,10.3698,9.763]},"id":"us6000tz5h"},{"type":"Feature","properties":{"mag":4.6,"place":"20 km ESE of Petropavlovsk-Kamchatsky, Russia","time":1790956930426,"updated":1791052081040,"tz":null,"url":"https://earthquake.usgs.gov/earthquakes/eventpage/us6000tz20","detail":"https://earthquake.usgs.gov/fdsnws/event/1/query?eventid=us6000tz20&format=geojson","felt":null,"cdi":null,"mmi":null,"alert":null,"status":"reviewed","tsunami":0,"sig":326,"net":"us","code":"6000tz20","ids":",us6000tz20,","sources":",us,","types":",origin,phase-data,","nst":65,"dmin":0.166,"rms":0.72,"gap":101,"magType":"mb","type":"earthquake","title":"M 4.6 - 20 km ESE of Petropavlovsk-Kamchatsky, Russia"},"geometry":{"type":"Point","coordinates":[158.9242,53.0163,99.084]},"id":"us6000tz20"},{"type":"Feature","properties":{"mag":4.7,"place":"5 km NNE of Korumburra, Australia","time":1790956899581,"updated":1790971152074,"tz":null,"url":"https://earthquake.usgs.gov/earthquakes/eventpage/us6000tz1y","detail":"https://earthquake.usgs.gov/fdsnws/event/1/query?eventid=us6000tz1y&format=geojson","felt":517,"cdi":5.4,"mmi":5.856,"alert":"green","status":"reviewed","tsunami":0,"sig":619,"net":"us","code":"6000tz1y","ids":",us6000tz1y,","sources":",us,","types":",dyfi,ground-failure,losspager,origin,phase-data,shakemap,","nst":27,"dmin":0.853,"rms":0.69,"gap":62,"magType":"mb","type":"earthquake","title":"M 4.7 - 5 km NNE of Korumburra, Australia"},"geometry":{"type":"Point","coordinates":[145.8401,-38.3802,10]},"id":"us6000tz1y"},{"type":"Feature","properties":{"mag":4.5,"place":"7 km NE of Chalandrítsa, Greece","time":1790954802710,"updated":1791050980040,"tz":null,"url":"https://earthquake.usgs.gov/earthquakes/eventpage/us6000tz1r","detail":"https://earthquake.usgs.gov/fdsnws/event/1/query?eventid=us6000tz1r&format=geojson","felt":null,"cdi":null,"mmi":null,"alert":null,"status":"reviewed","tsunami":0,"sig":312,"net":"us","code":"6000tz1r","ids":",us6000tz1r,","sources":",us,","types":",origin,phase-data,","nst":41,"dmin":0.947,"rms":0.99,"gap":87,"magType":"mb","type":"earthquake","title":"M 4.5 - 7 km NE of Chalandrítsa, Greece"},"geometry":{"type":"Point","coordinates":[21.8509,38.1524,10]},"id":"us6000tz1r"},{"type":"Feature","properties":{"mag":4.8,"place":"78 km WSW of San Nicolas, Philippines","time":1790953819729,"updated":1790955335040,"tz":null,"url":"https://earthquake.usgs.gov/earthquakes/eventpage/us6000tz1q","detail":"https://earthquake.usgs.gov/fdsnws/event/1/query?eventid=us6000tz1q&format=geojson","felt":null,"cdi":null,"mmi":null,"alert":null,"status":"reviewed","tsunami":0,"sig":354,"net":"us","code":"6000tz1q","ids":",us6000tz1q,","sources":",us,","types":",origin,phase-data,","nst":33,"dmin":8.345,"rms":0.75,"gap":120,"magType":"mb","type":"earthquake","title":"M 4.8 - 78 km WSW of San Nicolas, Philippines"},"geometry":{"type":"Point","coordinates":[119.4593,14.571,10]},"id":"us6000tz1q"},{"type":"Feature","properties":{"mag":5,"place":"6 km E of Inglewood, New Zealand","time":1790949435838,"updated":1791145505936,"tz":null,"url":"https://earthquake.usgs.gov/earthquakes/eventpage/us6000tz1c","detail":"https://earthquake.usgs.gov/fdsnws/event/1/query?eventid=us6000tz1c&format=geojson","felt":11,"cdi":5.3,"mmi":5.421,"alert":"green","status":"reviewed","tsunami":0,"sig":390,"net":"us","code":"6000tz1c","ids":",us6000tz1c,","sources":",us,","types":",dyfi,ground-failure,losspager,origin,phase-data,shakemap,","nst":23,"dmin":0.389,"rms":1.07,"gap":107,"magType":"mb","type":"earthquake","title":"M 5.0 - 6 km E of Inglewood, New Zealand"},"geometry":{"type":"Point","coordinates":[174.2598,-39.1598,10]},"id":"us6000tz1c"},{"type":"Feature","properties":{"mag":5,"place":"63 km SW of Panguna, Papua New Guinea","time":1790939654383,"updated":1790940834040,"tz":null,"url":"https://earthquake.usgs.gov/earthquakes/eventpage/us6000tz0x","detail":"https://earthquake.usgs.gov/fdsnws/event/1/query?eventid=us6000tz0x&format=geojson","felt":null,"cdi":null,"mmi":null,"alert":null,"status":"reviewed","tsunami":0,"sig":385,"net":"us","code":"6000tz0x","ids":",us6000tz0x,","sources":",us,","types":",origin,phase-data,","nst":70,"dmin":3.735,"rms":0.77,"gap":95,"magType":"mb","type":"earthquake","title":"M 5.0 - 63 km SW of Panguna, Papua New Guinea"},"geometry":{"type":"Point","coordinates":[155.0136,-6.6368,38.25]},"id":"us6000tz0x"},{"type":"Feature","properties":{"mag":4.8,"place":"35 km SSW of El Colomo, Mexico","time":1790924015007,"updated":1790925115040,"tz":null,"url":"https://earthquake.usgs.gov/earthquakes/eventpage/us6000tyzx","detail":"https://earthquake.usgs.gov/fdsnws/event/1/query?eventid=us6000tyzx&format=geojson","felt":null,"cdi":null,"mmi":null,"alert":null,"status":"reviewed","tsunami":0,"sig":354,"net":"us","code":"6000tyzx","ids":",us6000tyzx,","sources":",us,","types":",moment-tensor,origin,phase-data,","nst":57,"dmin":3.104,"rms":1.32,"gap":191,"magType":"mww","type":"earthquake","title":"M 4.8 - 35 km SSW of El Colomo, Mexico"},"geometry":{"type":"Point","coordinates":[-104.3753,18.7561,23.972]},"id":"us6000tyzx"},{"type":"Feature","properties":{"mag":4.5,"place":"101 km NE of Ruteng, Indonesia","time":1790923686954,"updated":1790925874040,"tz":null,"url":"https://earthquake.usgs.gov/earthquakes/eventpage/us6000tyzy","detail":"https://earthquake.usgs.gov/fdsnws/event/1/query?eventid=us6000tyzy&format=geojson","felt":null,"cdi":null,"mmi":null,"alert":null,"status":"reviewed","tsunami":0,"sig":312,"net":"us","code":"6000tyzy","ids":",us6000tyzy,","sources":",us,","types":",origin,phase-data,","nst":16,"dmin":3.21,"rms":1.18,"gap":129,"magType":"mb","type":"earthquake","title":"M 4.5 - 101 km NE of Ruteng, Indonesia"},"geometry":{"type":"Point","coordinates":[121.0985,-7.9511,10]},"id":"us6000tyzy"},{"type":"Feature","properties":{"mag":4.8,"place":"192 km WNW of Tobelo, Indonesia","time":1790919535084,"updated":1790921544040,"tz":null,"url":"https://earthquake.usgs.gov/earthquakes/eventpage/us6000tyzt","detail":"https://earthquake.usgs.gov/fdsnws/event/1/query?eventid=us6000tyzt&format=geojson","felt":null,"cdi":null,"mmi":null,"alert":null,"status":"reviewed","tsunami":0,"sig":354,"net":"us","code":"6000tyzt","ids":",us6000tyzt,","sources":",us,","types":",origin,phase-data,","nst":50,"dmin":4.554,"rms":0.96,"gap":103,"magType":"mb","type":"earthquake","title":"M 4.8 - 192 km WNW of Tobelo, Indonesia"},"geometry":{"type":"Point","coordinates":[126.4944,2.5781,10]},"id":"us6000tyzt"},{"type":"Feature","properties":{"mag":5.1,"place":"159 km SE of Gizo, Solomon Islands","time":1790916293423,"updated":1790917177040,"tz":null,"url":"https://earthquake.usgs.gov/earthquakes/eventpage/us6000tyzl","detail":"https://earthquake.usgs.gov/fdsnws/event/1/query?eventid=us6000tyzl&format=geojson","felt":null,"cdi":null,"mmi":null,"alert":null,"status":"reviewed","tsunami":0,"sig":400,"net":"us","code":"6000tyzl","ids":",us6000tyzl,","sources":",us,","types":",origin,phase-data,","nst":52,"dmin":10.734,"rms":0.42,"gap":53,"magType":"mb","type":"earthquake","title":"M 5.1 - 159 km SE of Gizo, Solomon Islands"},"geometry":{"type":"Point","coordinates":[158.0215,-8.9326,10]},"id":"us6000tyzl"},{"type":"Feature","properties":{"mag":5,"place":"south of the Fiji Islands","time":1790915225754,"updated":1790916138040,"tz":null,"url":"https://earthquake.usgs.gov/earthquakes/eventpage/us6000tyzi","detail":"https://earthquake.usgs.gov/fdsnws/event/1/query?eventid=us6000tyzi&format=geojson","felt":null,"cdi":null,"mmi":null,"alert":null,"status":"reviewed","tsunami":0,"sig":385,"net":"us","code":"6000tyzi","ids":",us6000tyzi,","sources":",us,","types":",origin,phase-data,","nst":61,"dmin":5.399,"rms":0.82,"gap":87,"magType":"mb","type":"earthquake","title":"M 5.0 - south of the Fiji Islands"},"geometry":{"type":"Point","coordinates":[178.6446,-24.7752,557.245]},"id":"us6000tyzi"},{"type":"Feature","properties":{"mag":4.9,"place":"97 km S of Panguna, Papua New Guinea","time":1790914258487,"updated":1790916591040,"tz":null,"url":"https://earthquake.usgs.gov/earthquakes/eventpage/us6000tyzg","detail":"https://earthquake.usgs.gov/fdsnws/event/1/query?eventid=us6000tyzg&format=geojson","felt":null,"cdi":null,"mmi":null,"alert":null,"status":"reviewed","tsunami":0,"sig":369,"net":"us","code":"6000tyzg","ids":",us6000tyzg,","sources":",us,","types":",origin,phase-data,","nst":50,"dmin":4.537,"rms":0.64,"gap":134,"magType":"mb","type":"earthquake","title":"M 4.9 - 97 km S of Panguna, Papua New Guinea"},"geometry":{"type":"Point","coordinates":[155.6075,-7.1852,35]},"id":"us6000tyzg"},{"type":"Feature","properties":{"mag":4.7,"place":"49 km S of Lata, Solomon Islands","time":1790906554584,"updated":1791114617040,"tz":null,"url":"https://earthquake.usgs.gov/earthquakes/eventpage/us6000tzim","detail":"https://earthquake.usgs.gov/fdsnws/event/1/query?eventid=us6000tzim&format=geojson","felt":null,"cdi":null,"mmi":null,"alert":null,"status":"reviewed","tsunami":0,"sig":340,"net":"us","code":"6000tzim","ids":",us6000tzim,","sources":",us,","types":",origin,phase-data,","nst":33,"dmin":27.494,"rms":0.58,"gap":134,"magType":"mb","type":"earthquake","title":"M 4.7 - 49 km S of Lata, Solomon Islands"},"geometry":{"type":"Point","coordinates":[165.794,-11.1735,10]},"id":"us6000tzim"},{"type":"Feature","properties":{"mag":4.5,"place":"2 km NE of Satte, Japan","time":1790888501707,"updated":1791042061152,"tz":null,"url":"https://earthquake.usgs.gov/earthquakes/eventpage/us6000tyxk","detail":"https://earthquake.usgs.gov/fdsnws/event/1/query?eventid=us6000tyxk&format=geojson","felt":3,"cdi":2.5,"mmi":null,"alert":null,"status":"reviewed","tsunami":0,"sig":312,"net":"us","code":"6000tyxk","ids":",us6000tyxk,","sources":",us,","types":",dyfi,origin,phase-data,","nst":36,"dmin":1.323,"rms":0.87,"gap":134,"magType":"mb","type":"earthquake","title":"M 4.5 - 2 km NE of Satte, Japan"},"geometry":{"type":"Point","coordinates":[139.7487,36.0904,65.032]},"id":"us6000tyxk"},{"type":"Feature","properties":{"mag":5.1,"place":"176 km SE of Lata, Solomon Islands","time":1790884834322,"updated":1790886037040,"tz":null,"url":"https://earthquake.usgs.gov/earthquakes/eventpage/us6000tyx0","detail":"https://earthquake.usgs.gov/fdsnws/event/1/query?eventid=us6000tyx0&format=geojson","felt":null,"cdi":null,"mmi":null,"alert":null,"status":"reviewed","tsunami":0,"sig":400,"net":"us","code":"6000tyx0","ids":",us6000tyx0,","sources":",us,","types":",origin,phase-data,","nst":53,"dmin":9.229,"rms":0.71,"gap":101,"magType":"mb","type":"earthquake","title":"M 5.1 - 176 km SE of Lata, Solomon Islands"},"geometry":{"type":"Point","coordinates":[167.0918,-11.6728,10]},"id":"us6000tyx0"},{"type":"Feature","properties":{"mag":5.1,"place":"171 km SE of Lata, Solomon Islands","time":1790883481795,"updated":1790884982040,"tz":null,"url":"https://earthquake.usgs.gov/earthquakes/eventpage/us6000tywu","detail":"https://earthquake.usgs.gov/fdsnws/event/1/query?eventid=us6000tywu&format=geojson","felt":null,"cdi":null,"mmi":null,"alert":null,"status":"reviewed","tsunami":0,"sig":400,"net":"us","code":"6000tywu","ids":",us6000tywu,","sources":",us,","types":",origin,phase-data,","nst":86,"dmin":9.1,"rms":0.68,"gap":112,"magType":"mww","type":"earthquake","title":"M 5.1 - 171 km SE of Lata, Solomon Islands"},"geometry":{"type":"Point","coordinates":[166.961,-11.7706,10]},"id":"us6000tywu"},{"type":"Feature","properties":{"mag":4.6,"place":"83 km NE of Ruteng, Indonesia","time":1790876231734,"updated":1790878530040,"tz":null,"url":"https://earthquake.usgs.gov/earthquakes/eventpage/us6000tyw9","detail":"https://earthquake.usgs.gov/fdsnws/event/1/query?eventid=us6000tyw9&format=geojson","felt":null,"cdi":null,"mmi":null,"alert":null,"status":"reviewed","tsunami":0,"sig":326,"net":"us","code":"6000tyw9","ids":",us6000tyw9,","sources":",us,","types":",origin,phase-data,","nst":35,"dmin":3.169,"rms":0.9,"gap":115,"magType":"mb","type":"earthquake","title":"M 4.6 - 83 km NE of Ruteng, Indonesia"},"geometry":{"type":"Point","coordinates":[120.9009,-7.9896,10]},"id":"us6000tyw9"},{"type":"Feature","properties":{"mag":5.1,"place":"108 km ENE of Miyako, Japan","time":1790875040097,"updated":1790876954202,"tz":null,"url":"https://earthquake.usgs.gov/earthquakes/eventpage/us6000tyw6","detail":"https://earthquake.usgs.gov/fdsnws/event/1/query?eventid=us6000tyw6&format=geojson","felt":1,"cdi":2.2,"mmi":null,"alert":null,"status":"reviewed","tsunami":0,"sig":400,"net":"us","code":"6000tyw6","ids":",us6000tyw6,","sources":",us,","types":",dyfi,origin,phase-data,","nst":78,"dmin":1.851,"rms":0.9,"gap":123,"magType":"mww","type":"earthquake","title":"M 5.1 - 108 km ENE of Miyako, Japan"},"geometry":{"type":"Point","coordinates":[143.1734,39.8778,35]},"id":"us6000tyw6"},{"type":"Feature","properties":{"mag":4.8,"place":"127 km S of False Pass, Alaska","time":1790865979877,"updated":1790888901440,"tz":null,"url":"https://earthquake.usgs.gov/earthquakes/eventpage/us6000tyuf","detail":"https://earthquake.usgs.gov/fdsnws/event/1/query?eventid=us6000tyuf&format=geojson","felt":null,"cdi":null,"mmi":2.745,"alert":null,"status":"reviewed","tsunami":0,"sig":354,"net":"us","code":"6000tyuf","ids":",aka2026tljnqz,us6000tyuf,","sources":",ak,us,","types":",origin,phase-data,shakemap,","nst":68,"dmin":0.97,"rms":0.83,"gap":166,"magType":"mb","type":"earthquake","title":"M 4.8 - 127 km S of False Pass, Alaska"},"geometry":{"type":"Point","coordinates":[-163.7238,53.7226,35]},"id":"us6000tyuf"},{"type":"Feature","properties":{"mag":5,"place":"176 km NNE of Ruteng, Indonesia","time":1790864399078,"updated":1790865515040,"tz":null,"url":"https://earthquake.usgs.gov/earthquakes/eventpage/us6000tyua","detail":"https://earthquake.usgs.gov/fdsnws/event/1/query?eventid=us6000tyua&format=geojson","felt":null,"cdi":null,"mmi":null,"alert":null,"status":"reviewed","tsunami":0,"sig":385,"net":"us","code":"6000tyua","ids":",us6000tyua,","sources":",us,","types":",origin,phase-data,","nst":54,"dmin":2.356,"rms":1.02,"gap":95,"magType":"mb","type":"earthquake","title":"M 5.0 - 176 km NNE of Ruteng, Indonesia"},"geometry":{"type":"Point","coordinates":[120.9136,-7.0805,10]},"id":"us6000tyua"},{"type":"Feature","properties":{"mag":5.3,"place":"0 km NNE of Yōkaichiba, Japan","time":1790857631864,"updated":1790902738566,"tz":null,"url":"https://earthquake.usgs.gov/earthquakes/eventpage/us6000tytg","detail":"https://earthquake.usgs.gov/fdsnws/event/1/query?eventid=us6000tytg&format=geojson","felt":25,"cdi":3.7,"mmi":null,"alert":null,"status":"reviewed","tsunami":0,"sig":441,"net":"us","code":"6000tytg","ids":",us6000tytg,","sources":",us,","types":",dyfi,origin,phase-data,","nst":97,"dmin":2.072,"rms":0.76,"gap":119,"magType":"mww","type":"earthquake","title":"M 5.3 - 0 km NNE of Yōkaichiba, Japan"},"geometry":{"type":"Point","coordinates":[140.5507,35.7025,41.649]},"id":"us6000tytg"},{"type":"Feature","properties":{"mag":4.5,"place":"8 km ENE of Zaqatala, Azerbaijan","time":1790851902236,"updated":1791181197040,"tz":null,"url":"https://earthquake.usgs.gov/earthquakes/eventpage/us6000tysk","detail":"https://earthquake.usgs.gov/fdsnws/event/1/query?eventid=us6000tysk&format=geojson","felt":null,"cdi":null,"mmi":null,"alert":null,"status":"reviewed","tsunami":0,"sig":312,"net":"us","code":"6000tysk","ids":",us6000tysk,","sources":",us,","types":",origin,phase-data,","nst":69,"dmin":2.141,"rms":0.48,"gap":45,"magType":"mb","type":"earthquake","title":"M 4.5 - 8 km ENE of Zaqatala, Azerbaijan"},"geometry":{"type":"Point","coordinates":[46.7292,41.6704,10]},"id":"us6000tysk"},{"type":"Feature","properties":{"mag":4.7,"place":"northern Mid-Atlantic Ridge","time":1790848995128,"updated":1790853124040,"tz":null,"url":"https://earthquake.usgs.gov/earthquakes/eventpage/us6000tysi","detail":"https://earthquake.usgs.gov/fdsnws/event/1/query?eventid=us6000tysi&format=geojson","felt":null,"cdi":null,"mmi":null,"alert":null,"status":"reviewed","tsunami":0,"sig":340,"net":"us","code":"6000tysi","ids":",us6000tysi,","sources":",us,","types":",origin,phase-data,","nst":62,"dmin":21.239,"rms":0.46,"gap":94,"magType":"mb","type":"earthquake","title":"M 4.7 - northern Mid-Atlantic Ridge"},"geometry":{"type":"Point","coordinates":[-41.428,31.0444,10]},"id":"us6000tysi"},{"type":"Feature","properties":{"mag":4.9,"place":"145 km ESE of Neiafu, Tonga","time":1790844344312,"updated":1790845949040,"tz":null,"url":"https://earthquake.usgs.gov/earthquakes/eventpage/us6000tyr4","detail":"https://earthquake.usgs.gov/fdsnws/event/1/query?eventid=us6000tyr4&format=geojson","felt":null,"cdi":null,"mmi":null,"alert":null,"status":"reviewed","tsunami":0,"sig":369,"net":"us","code":"6000tyr4","ids":",us6000tyr4,","sources":",us,","types":",origin,phase-data,","nst":17,"dmin":2.626,"rms":0.73,"gap":108,"magType":"mb","type":"earthquake","title":"M 4.9 - 145 km ESE of Neiafu, Tonga"},"geometry":{"type":"Point","coordinates":[-172.7038,-19.141,10]},"id":"us6000tyr4"},{"type":"Feature","properties":{"mag":4.5,"place":"49 km SSE of Toktogul, Kyrgyzstan","time":1790842679307,"updated":1790848661040,"tz":null,"url":"https://earthquake.usgs.gov/earthquakes/eventpage/us6000tyqy","detail":"https://earthquake.usgs.gov/fdsnws/event/1/query?eventid=us6000tyqy&format=geojson","felt":null,"cdi":null,"mmi":null,"alert":null,"status":"reviewed","tsunami":0,"sig":312,"net":"us","code":"6000tyqy","ids":",us6000tyqy,","sources":",us,","types":",origin,phase-data,","nst":28,"dmin":0.179,"rms":0.92,"gap":85,"magType":"mb","type":"earthquake","title":"M 4.5 - 49 km SSE of Toktogul, Kyrgyzstan"},"geometry":{"type":"Point","coordinates":[73.1419,41.4538,10]},"id":"us6000tyqy"},{"type":"Feature","properties":{"mag":4.6,"place":"northern Mid-Atlantic Ridge","time":1790840406605,"updated":1790844197040,"tz":null,"url":"https://earthquake.usgs.gov/earthquakes/eventpage/us6000tyqx","detail":"https://earthquake.usgs.gov/fdsnws/event/1/query?eventid=us6000tyqx&format=geojson","felt":null,"cdi":null,"mmi":null,"alert":null,"status":"reviewed","tsunami":0,"sig":326,"net":"us","code":"6000tyqx","ids":",us6000tyqx,","sources":",us,","types":",origin,phase-data,","nst":38,"dmin":21.007,"rms":0.3,"gap":159,"magType":"mb","type":"earthquake","title":"M 4.6 - northern Mid-Atlantic Ridge"},"geometry":{"type":"Point","coordinates":[-41.5851,31.2357,10]},"id":"us6000tyqx"},{"type":"Feature","properties":{"mag":5,"place":"38 km WSW of Palimbang, Philippines","time":1790832850634,"updated":1790846730805,"tz":null,"url":"https://earthquake.usgs.gov/earthquakes/eventpage/us6000tyq7","detail":"https://earthquake.usgs.gov/fdsnws/event/1/query?eventid=us6000tyq7&format=geojson","felt":1,"cdi":3.1,"mmi":null,"alert":null,"status":"reviewed","tsunami":0,"sig":385,"net":"us","code":"6000tyq7","ids":",us6000tyq7,","sources":",us,","types":",dyfi,origin,phase-data,","nst":59,"dmin":1.955,"rms":0.72,"gap":55,"magType":"mb","type":"earthquake","title":"M 5.0 - 38 km WSW of Palimbang, Philippines"},"geometry":{"type":"Point","coordinates":[123.8599,6.1116,10]},"id":"us6000tyq7"},{"type":"Feature","properties":{"mag":4.5,"place":"272 km WSW of Tual, Indonesia","time":1790820559068,"updated":1790826978040,"tz":null,"url":"https://earthquake.usgs.gov/earthquakes/eventpage/us6000typ5","detail":"https://earthquake.usgs.gov/fdsnws/event/1/query?eventid=us6000typ5&format=geojson","felt":null,"cdi":null,"mmi":null,"alert":null,"status":"reviewed","tsunami":0,"sig":312,"net":"us","code":"6000typ5","ids":",us6000typ5,","sources":",us,","types":",origin,phase-data,","nst":33,"dmin":6.692,"rms":0.79,"gap":94,"magType":"mb","type":"earthquake","title":"M 4.5 - 272 km WSW of Tual, Indonesia"},"geometry":{"type":"Point","coordinates":[130.346,-6.154,94.793]},"id":"us6000typ5"},{"type":"Feature","properties":{"mag":4.6,"place":"45 km ENE of Luwuk, Indonesia","time":1790818283443,"updated":1790819410040,"tz":null,"url":"https://earthquake.usgs.gov/earthquakes/eventpage/us6000typ0","detail":"https://earthquake.usgs.gov/fdsnws/event/1/query?eventid=us6000typ0&format=geojson","felt":null,"cdi":null,"mmi":null,"alert":null,"status":"reviewed","tsunami":0,"sig":326,"net":"us","code":"6000typ0","ids":",us6000typ0,","sources":",us,","types":",origin,phase-data,","nst":30,"dmin":5.362,"rms":0.76,"gap":98,"magType":"mb","type":"earthquake","title":"M 4.6 - 45 km ENE of Luwuk, Indonesia"},"geometry":{"type":"Point","coordinates":[123.1839,-0.863,116.392]},"id":"us6000typ0"},{"type":"Feature","properties":{"mag":5.2,"place":"7 km ESE of Baghlān, Afghanistan","time":1790818160694,"updated":1790840466409,"tz":null,"url":"https://earthquake.usgs.gov/earthquakes/eventpage/us6000tyny","detail":"https://earthquake.usgs.gov/fdsnws/event/1/query?eventid=us6000tyny&format=geojson","felt":2,"cdi":2.7,"mmi":null,"alert":null,"status":"reviewed","tsunami":0,"sig":417,"net":"us","code":"6000tyny","ids":",us6000tyny,","sources":",us,","types":",dyfi,origin,phase-data,","nst":98,"dmin":1.607,"rms":1.08,"gap":33,"magType":"mb","type":"earthquake","title":"M 5.2 - 7 km ESE of Baghlān, Afghanistan"},"geometry":{"type":"Point","coordinates":[68.7818,36.0991,49.602]},"id":"us6000tyny"},{"type":"Feature","properties":{"mag":4.9,"place":"northern Mid-Atlantic Ridge","time":1790814502644,"updated":1790815524040,"tz":null,"url":"https://earthquake.usgs.gov/earthquakes/eventpage/us6000tynp","detail":"https://earthquake.usgs.gov/fdsnws/event/1/query?eventid=us6000tynp&format=geojson","felt":null,"cdi":null,"mmi":null,"alert":null,"status":"reviewed","tsunami":0,"sig":369,"net":"us","code":"6000tynp","ids":",us6000tynp,","sources":",us,","types":",origin,phase-data,","nst":45,"dmin":16.911,"rms":0.71,"gap":87,"magType":"mb","type":"earthquake","title":"M 4.9 - northern Mid-Atlantic Ridge"},"geometry":{"type":"Point","coordinates":[-43.0353,19.2756,10]},"id":"us6000tynp"},{"type":"Feature","properties":{"mag":5.6,"place":"94 km SW of Tamarindo, Costa Rica","time":1790805326169,"updated":1790985436749,"tz":null,"url":"https://earthquake.usgs.gov/earthquakes/eventpage/us6000tymj","detail":"https://earthquake.usgs.gov/fdsnws/event/1/query?eventid=us6000tymj&format=geojson","felt":4,"cdi":2,"mmi":3.825,"alert":"green","status":"reviewed","tsunami":0,"sig":483,"net":"us","code":"6000tymj","ids":",us6000tymj,","sources":",us,","types":",dyfi,losspager,moment-tensor,origin,phase-data,shakemap,","nst":110,"dmin":1.097,"rms":0.76,"gap":63,"magType":"mww","type":"earthquake","title":"M 5.6 - 94 km SW of Tamarindo, Costa Rica"},"geometry":{"type":"Point","coordinates":[-86.5063,9.7526,8]},"id":"us6000tymj"},{"type":"Feature","properties":{"mag":4.6,"place":"131 km SE of Itoman, Japan","time":1790802717694,"updated":1790805205040,"tz":null,"url":"https://earthquake.usgs.gov/earthquakes/eventpage/us6000tym9","detail":"https://earthquake.usgs.gov/fdsnws/event/1/query?eventid=us6000tym9&format=geojson","felt":null,"cdi":null,"mmi":null,"alert":null,"status":"reviewed","tsunami":0,"sig":326,"net":"us","code":"6000tym9","ids":",us6000tym9,","sources":",us,","types":",origin,phase-data,","nst":40,"dmin":2.526,"rms":0.55,"gap":96,"magType":"mb","type":"earthquake","title":"M 4.6 - 131 km SE of Itoman, Japan"},"geometry":{"type":"Point","coordinates":[128.5077,25.2167,10]},"id":"us6000tym9"},{"type":"Feature","properties":{"mag":4.9,"place":"136 km SE of Petropavlovsk-Kamchatsky, Russia","time":1790793382667,"updated":1790794791040,"tz":null,"url":"https://earthquake.usgs.gov/earthquakes/eventpage/us6000tykw","detail":"https://earthquake.usgs.gov/fdsnws/event/1/query?eventid=us6000tykw&format=geojson","felt":null,"cdi":null,"mmi":null,"alert":null,"status":"reviewed","tsunami":0,"sig":369,"net":"us","code":"6000tykw","ids":",us6000tykw,","sources":",us,","types":",origin,phase-data,","nst":138,"dmin":1.741,"rms":0.78,"gap":122,"magType":"mb","type":"earthquake","title":"M 4.9 - 136 km SE of Petropavlovsk-Kamchatsky, Russia"},"geometry":{"type":"Point","coordinates":[160.2895,52.3676,31.929]},"id":"us6000tykw"},{"type":"Feature","properties":{"mag":5,"place":"142 km SE of Petropavlovsk-Kamchatsky, Russia","time":1790792479257,"updated":1790793462040,"tz":null,"url":"https://earthquake.usgs.gov/earthquakes/eventpage/us6000tyku","detail":"https://earthquake.usgs.gov/fdsnws/event/1/query?eventid=us6000tyku&format=geojson","felt":null,"cdi":null,"mmi":null,"alert":null,"status":"reviewed","tsunami":0,"sig":385,"net":"us","code":"6000tyku","ids":",us6000tyku,","sources":",us,","types":",origin,phase-data,","nst":149,"dmin":1.788,"rms":0.58,"gap":124,"magType":"mb","type":"earthquake","title":"M 5.0 - 142 km SE of Petropavlovsk-Kamchatsky, Russia"},"geometry":{"type":"Point","coordinates":[160.3332,52.3167,35]},"id":"us6000tyku"}],"bbox":[-179.4827,-58.1594,8,179.8316,64.5091,575.042]}